 2004  416 0811 16.8 LE 57.811  10.802  0.0  TES  2 0.9 1.7LTES 2.5CTES        1
 GAP=253        3.98      14.9    89.7  0.0  0.8161E+03  0.0000E+00  0.0000E+00E
 ACTION:UP  11-12-04 16:49 OP:ke   STATUS:               ID:20040416081116 L   I
 2004  416 0811 19.5 L  57.732  10.618  0.0  BER  9 1.1 1.7LBER 2.1CBER 2.4LNAO1
 2004 0416 0811 20.0 L  57.854  10.727  4.8  NAO  3 0.4                 2.4LNAO1
                 9.9     0.6     0.4   50.3                                    5
 2004-04-16-0811-28S.KMY___003                                                 6
 2004-04-16-0811-26S.ODD___003                                                 6
 2004-04-16-0811-36S.WNN___003                                                 6
 2004-04-16-0811-26S.BLS___003                                                 6
 2004-04-16-0810-00S.MUD___003                                                 6
 2004-04-16-0811-00S.BSD___003                                                 6
 sok: 16 APR 08:10 5738.0N 01042.0E 19M sand et stk mine type 25               3
     542  DENMARK                                                              3
 STAT SP IPHASW D HRMM SECON CODA AMPLIT PERI AZIMU VELO AIN AR TRES W  DIS CAZ7
 DELU BZ  P   4   0811 53.40                  310.1       49                    
 ASKU BT  S   4   0812 34.56                              49    7.79 0  265  61 
 VXJU BZ  P   4   0811 57.66                  292.2       49  0 0.05 0  268 110 
 EKSU BZ  P   4   0811 59.46                  254.7       49-22 1.63 0  270  94 
 LNKU BZ  P   4   0812  1.21                  246.1       49-16 1.89 0  282  79 
 HFS      Pn  4   0812 04.6                               49    2.04 0  308  32 
 HFS  SZ  Pn      0812 04.78                  222.0  8.4  49  8 2.2210  308  32 
 HFS  SZ  Pg      0812 09.23                  210.0  6.9  90 -3 1.8010  308  32 
 HFS      p   4   0812 10.0                               49    7.44 0  308  32 
 HFS      p   4   0812 13.6                               49   11.04 0  308  32 
 HFS      p   4   0812 16.3                               49   13.74 0  308  32 
 HFS      s   4   0812 20.9                               49   -15.1 0  308  32 
 HFS      p   4   0812 28.6                               49   26.04 0  308  32 
 HFS      Sn      0812 33.3                               49   -2.7010  308  32 
 HFS      s   4   0812 40.8                               49    4.80 0  308  32 
 HFS      Lg  4   0812 42.9        1.0   8.12              0    0.70 0  308  32 
 HFS  SZ  Lg  4   0812 46.85                  216.5  4.0   0  3 4.65 0  308  32 
 HFS      s   4   0812 47.8                               49   11.80 0  308  32 
 HFS      s   4   0812 48.4                               49   12.40 0  308  32 
 HFS      s   4   0812 52.9                               49   16.90 0  308  32 
 HFS      s   4   0812 55.8                               49   19.80 0  308  32 
 BLS5 SZ EP   4    812  3.08  101                         49    0.21 0  310 307 
 BLS5 SE ES   4    812 36.74                              49    0.21 0  310 307 
 BLS5 SZ  AML 4    812 48.92         7.5 0.41                           310 307 
 NRAU BZ  P   4   0812  9.37                  239.4       49  6 5.99 0  314  50 
 OSKU BZ  P   4   0812  5.58                  321.8       49 37 0.89 0  325 100 
 ODD1 SZ EP   4    812  6.03                              49   -0.08 0  336 316 
 ODD1 SN ES   4    812 41.92                              49   -0.23 0  336 316 
 BLEU BZ  P   4   0812  6.53                              49   -0.95 0  347 117 
 VIKU BZ  P   4   0812 10.75                  245.8       49-13 2.24 0  356  75 
 KMY  SZ EP   4    812  8.45   94                         49   -0.53 0  359 298 
 KMY  SZ ES   4    812 45.38                              49   -1.72 0  359 298 
 ESKU BZ  P   4   0812 11.70                  258.8       49 12 2.38 0  362  62 
 BSD  HZ IP        812 10.97                              49   -2.1910  393 138 
 BSD  HE ILG       813  6.75                               0    0.8710  393 138 
 EGD  SZ EP   4    812 16.64                              49   -0.04 0  421 313 
 EGD  SZ ES   4    813  0.28                              49   -0.15 0  421 313 
 BER  SZ EP   4    812 17.50                              49    0.40 0  424 315 
 BACU BZ  P   4   0812 20.13                  209.3       49-30 2.44 0  429  55 
 ASK  SZ EP   4    812 19.07                              49    0.36 0  437 315 
 NYNU BZ  P   4   0812 21.27                  267.2       49 12 2.08 0  441  69 
 OSTU BZ  P   4   0812 22.99                  215.8       49-19 2.41 0  452  51 
 NRTU BZ  P   4   0812 28.57                  250.5       49  2 2.28 0  498  62 
 GRAU BZ  P   4   0812 31.24                  231.9       49 -8 1.64 0  525  54 
 FIA0 SZ  Pn  4   0813 23.15                  251.0  9.5  49  0 0.68 0  949  58 
 FIA0 SZ  Sn  4   0814 58.60                  248.7  5.3  49 -2 4.36 0  949  58 
 FIA0 SZ  Lg  4   0815 49.32                  249.1  4.3   0 -1 8.85 0  949  58 
 ARA0 SZ  P   4   0814 26.20                  213.0  8.3  46 -2 2.98 0 1487  23 
 FIN      Pn  4   0813 23.2                               49   -70.8 0 1523 188 
 FIN      Lg  4   0815 49.3      275.4   2.09              0   -99.9 0 1523 188 
 ARC      Pn  4   0814 27.7                               49   -99.9 0 8293 326 
 ARC      p   4   0814 35.0                               46   -99.9 0 8293 326 
                                                                                
