 2005  2 3 1549 47.1 LE 56.217  11.214  0.0F DNK 11 1.3 3.1CDNK                1
 GAP=156        2.62       6.3    15.2  0.0  0.5757E+02 -0.3103E+06 -0.5324E+06E
 ACTION:SPL 11-09-19 12:44 OP:ke   STATUS:               ID:20050203154947 L   I
 2005  2 3 1549 52.0 L  56.289  11.363 15.0F BER  8 1.3 1.8LBER 2.7CBER 3.0LNAO1
 2005 0203 1549 48.4 L  56.267  11.152       NAO  5 0.8                 3.0LNAO1
                 3.1     0.2     0.5   -1.0                                    5
 2005-02-03-1540-00S.MUD___003                                                 6
 2005-02-03-1540-55S.BSD___003                                                 6
 2005-02-03-1541-00S.COP___003                                                 6
 2005-02-03-1550-17S.ODD___003                                                 6
 2005-02-03-1550-14S.BLS___003                                                 6
 2005-02-03-1550-06S.KONO__003                                                 6
 2005-02-03-1549-59S.SNART_003                                                 6
 ber: depth fixed to 15 km. continental crust                                  3
 pv: se event 1feb2005                                                         3
 pv: 031547Z FEB/KATTEGAT SYD/5610,040N-01130.170E/20M/SAND/800KG TNT          3
     542  DENMARK                                                              3
 STAT SP IPHASW D HRMM SECON CODA AMPLIT PERI AZIMU VELO AIN AR TRES W  DIS CAZ7
 COP  HZ IP       1550  3.23                              90    0.2110 96.5 127 
 COP  HE ES       1550 15.48                              90    0.8510 96.5 127 
 MUD  HZ IPg    C 1550 14.00                              90    5.58 0  129 283 
 MUD  HN ISg      1550 34.34                              90   10.37 0  129 283 
 BSD  HZ IP       1550 24.98                              49   -2.38 8  263 116 
 BSD  HN IS       1550 55.99                              49   -0.7610  263 116 
 SNARTSZ EP       1550 37.04                              49    0.2110  339 316 
 KONO BZ EP   4   1551 45.71  201                         49   62.02 0  394 347 
 BLS5 SZ EP       1550 53.18                              49    1.83 9  455 324 
 BLS5 SN ES       1551 38.82                              49    0.5910  455 324 
 HFS  SZ  Pn      1550 52.18                  203.1  8.1  49  4 0.2710  460  17 
 HFS  SZ  Pg      1551 03.19                  194.4  7.4  90 -4 0.2810  460  17 
 HFS  SZ  Sn      1551 40.98                  205.8  3.8  49  6 1.77 9  460  17 
 HFS  SZ  Lg      1551 56.84                  204.4  3.3  49  5-0.2510  460  17 
 ODD1 SZ EP       1550 56.63  107                         49    0.6510  492 329 
 ODD1 SZ ES       1551 42.80                              49   -3.45 6  492 329 
 NC6  SZ  Pn      1550 57.45                              49   -0.0510  505   2 
 NC6  SZ  Lg      1552 10.65                              49    0.9010  505   2 
 NB2  SZ  Pn      1551 01.20                              49   -0.3810  537   0 
 NB2  SZ  Lg      1552 17.77                              49   -1.1310  537   0 
 FIA0 SZ  Pn      1552 00.80                  244.1  9.3  49  2-2.52 8 1034  50 
 ARA0 SZ  Pn      1553 13.15                  207.2  8.0  49 -4-6.20 0 1644  20 
                                                                                
