 2005  2 3 1549 49.5 LE 56.284  11.583  0.0F TES  5 1.0 3.1CTES                1
 GAP=137        4.16      12.5    19.9  0.0  0.1260E+03  0.0000E+00  0.0000E+00E
 ACTION:UP  11-09-19 14:20 OP:ke   STATUS:               ID:20050203154947 L   I
 2005  2 3 1549 52.0 L  56.289  11.363 15.0F BER  8 1.3 1.8LBER 2.7CBER 3.0LNAO1
 2005 0203 1549 48.4 L  56.267  11.152       NAO  5 0.8                 3.0LNAO1
                 3.1     0.2     0.5   -1.0                                    5
 2005-02-03-1540-00S.MUD___003                                                 6
 2005-02-03-1540-55S.BSD___003                                                 6
 2005-02-03-1541-00S.COP___003                                                 6
 2005-02-03-1550-17S.ODD___003                                                 6
 2005-02-03-1550-14S.BLS___003                                                 6
 2005-02-03-1550-06S.KONO__003                                                 6
 2005-02-03-1549-59S.SNART_003                                                 6
 ber: depth fixed to 15 km. continental crust                                  3
 pv: se event 1feb2005                                                         3
 pv: 031547Z FEB/KATTEGAT SYD/5610,040N-01130.170E/20M/SAND/800KG TNT          3
     542  DENMARK                                                              3
 STAT SP IPHASW D HRMM SECON CODA AMPLIT PERI AZIMU VELO AIN AR TRES W  DIS CAZ7
 COP  HZ IP       1550  3.23                              90   -0.2810 85.2 141 
 COP  HE ES       1550 15.48                              90    1.7310 85.2 141 
 MUD  HZ IP     C 1550 14.00                              66   -0.0910  150 278 
 MUD  HN IS       1550 34.34                              66    2.2910  150 278 
 BSD  HZ IP       1550 24.98                              49   -2.6910  247 121 
 BSD  HN IS       1550 55.99                              49    0.4410  247 121 
 SNARTSZ EP       1550 37.04                              49   -3.3710  349 313 
 KONO BZ EP   4   1551 45.71  201                         49   59.83 0  393 343 
 HFS  SZ  Pn      1550 52.18                  203.1  8.1  49  6-0.3810  446  15 
 HFS  SZ  Pg  4   1551 03.19                  194.4  7.4  90 -2 0.18 0  446  15 
 HFS  SZ  Sn      1551 40.98                  205.8  3.8  49  9 2.3710  446  15 
 HFS  SZ  Lg  4   1551 56.84                  204.4  3.3   0  7 3.38 0  446  15 
 BLS5 SZ EP   4   1550 53.18                              49   -1.52 0  463 321 
 BLS5 SN ES   4   1551 38.82                              49   -3.50 0  463 321 
 NC6  SZ  Pn  4   1550 57.45                              49   -1.45 0  497 359 
 NC6  SZ  Lg  4   1552 10.65                               0    3.05 0  497 359 
 ODD1 SZ EP   4   1550 56.63  107                         49   -2.46 0  498 326 
 ODD1 SZ ES   4   1551 42.80                              49   -7.11 0  498 326 
 NB2  SZ  Pn  4   1551 01.20                              49   -1.85 0  530 358 
 NB2  SZ  Lg  4   1552 17.77                               0    1.01 0  530 358 
 FIA0 SZ  Pn  4   1552 00.80                  244.1  9.3  49  2-2.12 0 1011  49 
 ARA0 SZ  Pn  4   1553 13.15                  207.2  8.0  49 -4-6.72 0 1629  20 
                                                                                
