 2008 1216 0100  0.0 L  58.032  12.275  8.2  TES  3 0.0                 4.3WDNK1
 GAP=159        0.29       2.1     6.6  4.1 -0.1233E+02  0.2352E+02 -0.7875E+01E
 ACTION:UP  11-11-29 22:03 OP:ke   STATUS:               ID:20081216052002 L   I
 STAT SP IPHASW D HRMM SECON CODA AMPLIT PERI AZIMU VELO AIN AR TRES W  DIS CAZ7
 HFS      P       0100 37.48                              49    0.0010  248  19 
 HFS      S       0101 04.84                              49    0.0010  248  19 
 MUD      P       0100 38.55                              49    0.0010  257 228 
 MUD      S       0101 06.69                              49    0.0010  257 228 
 COP      Pg      0100 43.10                              92    0.0010  261 178 
 COP      Sg      0101 14.57                              92    0.0010  261 178 
                                                                                
