 2005  2 3 0059 60.0 L  58.348  11.778 15.0  TES  3 0.0                        1
 GAP=170        0.29       2.7     3.8  5.6 -0.8425E+00  0.4552E+01  0.1368E+02E
 ACTION:UP  11-11-29 21:47 OP:ke   STATUS:               ID:20050203154947 L   I
 STAT SP IPHASW D HRMM SECON CODA AMPLIT PERI AZIMU VELO AIN AR TRES W  DIS CAZ7
 HFS      Pg      0100 37.48                              94    0.0010  227  28 
 HFS      Sg      0101 04.84                              94   -0.0110  227  28 
 MUD      P       0100 38.55                              49    0.0010  263 218 
 MUD      S       0101 06.69                              49    0.0010  263 218 
 COP      P       0100 43.10                              49    0.0010  299 172 
 COP      S       0101 14.57                              49    0.0010  299 172 
                                                                                
