 2010  219 0059 56.5 L  58.154  11.879  0.0  TES  3 1.0                        1
 GAP=163        2.40      14.0    23.3999.9  0.1117E+02  0.1687E+06  0.2747E+06E
 ACTION:UP  11-12-01 11:28 OP:ke   STATUS:               ID:20100219210859 L   I
 STAT SP IPHASW D HRMM SECON CODA AMPLIT PERI AZIMU VELO AIN AR TRES W  DIS CAZ7
 HFS      Pg      0100 37.48                              90    0.8710  244  24 
 HFS      Sg      0101 04.84                              90   -1.0810  244  24 
 MUD      Pg      0100 38.55                              90    0.9510  250 222 
 MUD      Sg      0101 06.69                              90   -0.9510  250 222 
 COP      Pg      0100 43.10                              90    1.0210  277 173 
 COP      Sg      0101 14.57                              90   -0.8210  277 173 
                                                                                
