 2010  219 0939 25.7 R  56.891   7.524 22.0FFDNK  5 3.4 1.2LTES                1
 File deleted from data base TESTB by ke   at 11-03-10 09:56                   3
 GAP=239        7.13      58.9   123.0  0.0  0.6416E+04  0.0000E+00  0.0000E+00E
 2010  221 0939 25.3 R  57.150   8.127  8.1  DNK  5 0.7 1.8LDNK                1
 ACTION:UPD 11-03-10 09:48 OP:ke   STATUS:               ID:20100219093925 L   I
 2010-02-21-0937-00S.DNK___031                                                 6
 STAT SP IPHASW D HRMM SECON CODA AMPLIT PERI AZIMU VELO AIN AR TRES W  DIS CAZ7
 STRU BE IS        940 36.65                              49                    
 BORU BZ EP        940  7.66                              49                    
 STRU BZ EP        940  5.60                              49                    
 BORU BE IS        940 38.36                              49                    
 MUD  HZ EP        939 41.05                              55   -1.8810  112 115 
 MUD  HZ IPn  4    939 45.34                              55    2.41 0  112 115 
 MUD  HE IS        939 54.90                              55   -0.8110  112 115 
 MUD  HZ  AML      939 55.25        15.3 0.38                           112 115 
 SNARTEZ EP        939 48.34                              55   -0.8410  162 353 
 SNARTEE ES        940  5.94                              55   -0.6410  162 353 
 SNARTEZ  AML      940  7.73         3.3 0.32                           162 353 
 DEL  BZ EP        940 25.04                              55    7.3810  392  94 
 DEL  BN IS        940 52.95                              55   -3.2010  392  94 
                                                                                
