 2003 12 4 1328 21.1 LE 56.251  11.505  0.0F DNK  6 1.2 3.2LDNK 3.2CDNK        1
 GAP=161        2.67       6.8    10.9  0.0  0.1740E+02  0.0000E+00  0.0000E+00E
 ACTION:SPL 11-09-19 12:44 OP:ke   STATUS:               ID:20031204132821 L   I
 2003-12-04-1325-48S.DNK___009                                                 6
 2003-12-04-1325-00S.DNK___012                                                 6
 2003-12-04-1327-16S.KONO__003                                                 6
 2003 12 4 1328 25.8 L  56.376  11.171 15.0F BER  3 1.3 2.5LBER 2.9CBER 2.7LNAO1
 Stations too far for reliable depth estimate. Fixed at 15 km. mbs             3
 2003 1204 1328 21.3 L  56.352  11.003       NAO  3 1.7                 2.7LNAO1
                 3.0     0.2     0.1   -1.0                                    5
     542  DENMARK                                                              3
 mag: HFS er fra norsar auto, mens HFA1 er egne afl.                           3
 pv: sok: pos 56 10,0n 11 23,5e 041330 to miner ialt 1190 kg                   3
 STAT SP IPHASW D HRMM SECON CODA AMPLIT PERI AZIMU VELO AIN AR TRES W  DIS CAZ7
 MUD  HZ IP       1328 44.63                              66   -0.4710  146 280 
 MUD  HN IS       1329  4.46                              66    1.83 9  146 280 
 BSD  HZ IP       1328 58.08                              49   -1.49 9  249 119 
 BSD  HE IS       1329 27.56                              49   -0.1110  249 119 
 BSD  HN ISG      1329 32.30                              90    0.2510  249 119 
 BSD  HZ ESG      1329 33.43                                            249 119 
 KONO BZ EP       1329 16.16  169                         49   -1.59 9  395 344 
 KONO BZ  AML     1330 19.73        33.5 0.40                           395 344 
 HFS  SZ  Pn      1329 24.22                  201.9  8.6  49  4-0.5510  451  16 
 HFS  SZ  Sn      1330 11.39                  192.0  4.2  49 -5 0.1210  451  16 
 HFS  SZ  Lg      1330 27.44                  194.5  3.6  49 -2-1.1110  451  16 
 HFA1 SZ IP       1329 24.79                              49   -0.0310  452  16 
 FIA0 SZ  P       1330 33.95                  245.2  8.9  46  3 1.74 9 1018  49 
 FIA0 SZ  Lg      1333 10.57                  250.6  3.9  47  9 2.06 9 1018  49 
                                                                                
