 2003  822 0349 38.3 L  56.698  11.434 10.0F DNK 10 1.2 3.2LDNK 3.3CDNK        1
 File deleted from data base ORIG_ by ke   at 11-03-01 14:13                   3
 GAP=109        2.94       5.0     9.8  0.0  0.1399E+02  0.2142E+02 -0.2875E+01E
 Rmsdep indicates 0-12km depth. Fixed at 10 km. mbs                            3
 2003  822 0349 40.2 L  56.530  11.291 15.0 SDNK 10 3.7 3.3CDNK 4.9LDNK        3
 ACTION:SPL 11-03-01 11:52 OP:ke   STATUS:               ID:20030822034940 L   I
 2003-08-22-0349-59S.WNN___004                                                 6
 2003-08-22-0350-15S.KMY___003                                                 6
 2003-08-22-0348-08S.KONO__003                                                 6
 2003 0822 0349 32.3 L  56.256  12.668       NAO  4 5.5                 3.1LNAO1
                 3.1     0.2     0.1   -1.0                                    5
     536  SWEDEN                                                               3
 2003  822  349 40.5 L  56.610  11.462 39.8  DA         3.2LDA                 1
 pv: DA is dalist, modified hypo71 location:                                   3
 pv:    y  m  d  h  m    s   deg min N  deg  min E  depth  Ml                  3
 pv:    03 08 22 03 49 40.5  56  36.64  11  27.7    39.8  3.2                  3
 STAT SP IPHASW D HRMM SECON CODA AMPLIT PERI AZIMU VELO AIN AR TRES W  DIS CAZ7
 COP  HZ IP        349 59.44                              66    0.4110  129 151 
 COP  HN IS        350 13.57                              66   -0.6110  129 151 
 MUD  HZ IPn       350  2.14                              49   -0.1710  142 260 
 MUD  HZ IPg       350  3.77                              94    2.10 9  142 260 
 MUD  HZ EP        350  8.61                              66    7.66 0  142 260 
 MUD  HE IS        350 18.89                              66    1.39 9  142 260 
 BSD  HZ IP        350 16.94                              49   -2.63 8  280 128 
 BSD  HZ I         350 22.13                                            280 128 
 BSD  HE ES        350 52.71                              49    3.00 7  280 128 
 BSD  HZ ISG       350 57.55                              92   -0.6310  280 128 
 KONO BZ EP        350 27.39  199                         49   -0.3810  346 343 
 KONO BZ ESg       351 16.97                              92    0.0510  346 343 
 KONO BZ  AML      351 22.77       149.0 0.40                           346 343 
 HFS  SZ  Pn      0350 35.25                  204.4 10.6  49  4 0.1310  405  18 
 HFS  SZ  Pg      0350 45.90                  197.1  8.2  91 -2 0.9010  405  18 
 HFS  SZ  Sn      0351 18.68                  209.1  6.4  49  9 2.07 9  405  18 
 HFS  SZ  Lg      0351 33.65                  208.2  3.5  49  8 1.0110  405  18 
 KMY  SZ EP        350 41.79                              49   -0.2710  461 310 
 KMY  SZ ES        351 27.13                              49   -1.49 9  461 310 
 KMY  SZ  AML      351 30.50        14.4 0.80                           461 310 
 EGD  SZ EP        350 50.95                              49   -0.6810  538 320 
 EGD  SZ ES        351 45.32                              49    0.1410  538 320 
 EGD  SZ  AML      352 26.59         9.6 0.68                           538 320 
 ASK  SZ EP        350 53.36                              49   -0.5310  556 322 
 ASK  SZ ES        351 47.67                              49   -1.42 9  556 322 
 ASK  SZ  AML      352 40.06        11.1 0.68                           556 322 
 FIA0 SZ  Pn      0351 47.07                  252.2  9.0  49  8-0.7910  989  52 
 FIA0 SZ  Sn      0353 21.50                              49   -0.9510  989  52 
 ARA0 SZ  P       0352 55.93                  209.4  8.4  46 -2 0.4110 1589  20 
                                                                                
