 2005  4 8 1611 32.5 LP 57.163  10.957  0.0F DNK 13 1.4 2.9LDNK 3.0CDNK        1
 File deleted from data base ORIG_ by ke   at 11-09-19 12:42                   3
 GAP= 85        5.04       7.0    14.6  0.0  0.3369E+02  0.4873E+03 -0.6681E+02E
 ACTION:SPL 11-03-01 11:52 OP:ke   STATUS:               ID:20050408161132 L   I
 2005  4 8 1611 35.2 L  57.166  10.862  0.0  BER 10 1.3 3.0CBER 2.2LBER 2.2LNAO1
 2005 0408 1611 34.8 L  57.253  10.954       NAO  3 1.4                 2.2LNAO1
                 2.6     0.2     0.3   -1.0                                    5
 2005-04-08-1606-00S.MUD___003                                                 6
 2005-04-08-1607-07S.BSD___003                                                 6
 2005-04-08-1611-00S.COP___003                                                 6
 2005-04-08-1612-32S.KMY___003                                                 6
 2005-04-08-1612-30S.ODD___003                                                 6
 2005-04-08-1613-08S.WNN___003                                                 6
 2005-04-08-1611-59S.BLS___003                                                 6
 2005-04-08-1610-41S.KONO__003                                                 6
 2005-04-08-1612-04S.SNART_003                                                 6
     542  DENMARK                                                              3
 STAT SP IPHASW D HRMM SECON CODA AMPLIT PERI AZIMU VELO AIN AR TRES W  DIS CAZ7
 MUD  HZ IP       1611 56.02                              90    1.36 9  134 235 
 MUD  HN IS       1612 12.55                              90    1.73 9  134 235 
 COP  HZ IP       1612  4.06                              66    1.1610  188 150 
 COP  HZ IP       1612  4.06                              66            188 150 
 COP  HE IS       1612 22.32                              66   -2.74 8  188 150 
 COP  HE IS       1612 22.32                              66            188 150 
 COP  HZ ISg      1612 26.92                              90    0.7210  188 150 
 COP  HZ ISg      1612 26.92                              91            188 150 
 SNARTSN ES       1612 39.07                              49   -2.35 8  260 302 
 SNARTSZ  AML     1612 48.61        23.8 0.49                           260 302 
 KONO BZ EP       1612 15.95  227                         49    0.0510  288 345 
 KONO BN ES       1612 49.05                              49    1.50 9  288 345 
 BSD  HZ IP       1612 20.17                              49   -1.63 9  336 131 
 BSD  HZ IP       1612 20.17                              49            336 131 
 BSD  HZ I        1612 26.93                                            336 131 
 BSD  HZ I        1612 26.93                                            336 131 
 BSD  HN IS       1612 53.74                              49   -4.03 5  336 131 
 BSD  HN IS       1612 53.74                              49            336 131 
 BSD  HZ ISg      1613  7.65                              90   -0.5310  336 131 
 BSD  HZ ISg      1613  7.65                              90            336 131 
 BLS5 SZ EP       1612 25.48  110                         49    0.0210  365 316 
 BLS5 SN ESg      1613 16.07                              90   -0.3710  365 316 
 BLS5 SZ  AML     1613 20.77        16.8 0.47                           365 316 
 HFS  SZ  Pn      1612 27.54                  213.5  9.1  49  7 1.79 9  367  25 
 HFS  SZ  Pg      1612 32.52                  201.2  8.2  90 -5-0.4910  367  25 
 HFS  SZ  Sn      1613 05.83                  209.1  5.9  49  2 1.24 9  367  25 
 HFS  SZ  Lg      1613 15.04                  211.4  3.9  49  5-1.1910  367  25 
 ODD1 SZ ESg      1613 25.48                              90   -0.0410  396 322 
 ODD1 SZ  AML     1613 27.13        19.1 0.32                           396 322 
 KMY  SZ ESg      1613 26.87                              90   -1.34 9  406 307 
 NB2  SZ  Pn      1612 33.82                  220.8  6.1  49 39-0.0710  432   2 
 NB2  SZ  Sn      1613 20.57                              49    1.89 9  432   2 
 NB2  SZ  Lg      1613 35.20                  176.6  3.8   0 -4 0.6110  432   2 
 EGD  SZ ESg      1613 48.63                              90   -0.5410  479 319 
 ASK  SZ ESg      1613 53.50                              90   -0.7410  497 320 
 FIA0 SZ  Pn      1613 44.00                  233.6  9.0  49-13 1.78 9  981  55 
 FIA0 SZ  Lg      1616 08.42                  253.2  5.2  49  6-1.35 9  981  55 
                                                                                
