 2003  9 6 0042 50.1 L  57.467  11.656 10.6  TES  3 1.4 3.3CTES                1
 GAP=146        3.73       7.3    19.8 17.8 -0.2688E+02  0.3274E+02 -0.2365E+02E
 ACTION:UP  11-12-04 20:15 OP:ke   STATUS:               ID:20030906004249 L   I
 2003  9 6 0042 51.1 L  57.477  11.646  0.0  BER  3 1.4                        1
 2003-09-06-0039-59S.DNK___009                                                 6
 ber: S file from KMS, Denmark. January 2004, mbs                              3
 STAT SP IPHASW D HRMM SECON CODA AMPLIT PERI AZIMU VELO AIN AR TRES W  DIS CAZ7
 MUD     IP         43 18.0                               66   -1.8110  188 234 
 MUD     IS         43 43.00                              66    1.5310  188 234 
 COP     IP   4     43 35.00                              49   13.12 0  204 166 
 COP     IS   4     44 15.00                              49   29.96 0  204 166 
 HFS      P        043 35.6                               49   -0.6910  320  21 
 HFS      Sn       044 07.6                               49   -2.3910  320  21 
 HFS      S         44 11.4                               49    1.4110  320  21 
 HFS      Lg        44 20.5                                0    1.5910  320  21 
 BSD  HZ IP        043 37.21  203                         49   -0.4410  331 141 
 BSD  HZ I         043 42.90                                            331 141 
 BSD  HN ES        044 13.63                              49    1.3010  331 141 
 BSD  HZ ISG       044 23.91                              92   -0.5110  331 141 
 FIN      Pn  4     44 49.3                               49   -73.2 0 1494 191 
                                                                                
