 2003 12 5 0059 59.9 L  58.229  11.719  0.0  TES  3 0.1                        1
 GAP=168        0.39       1.4     4.9  4.1 -0.4415E+01 -0.1420E+01  0.6587E+00E
 ACTION:UP  11-11-29 13:44 OP:ke   STATUS:               ID:20031204124749 L   I
 STAT SP IPHASW D HRMM SECON CODA AMPLIT PERI AZIMU VELO AIN AR TRES W  DIS CAZ7
 HFS      P       0100 37.14                              49   -0.2010  240  27 
 HFS      S       0101 04.82                              49    0.1610  240  27 
 MUD      P       0100 38.50                              49   -0.0210  250 219 
 MUD      S       0101 06.75                              49    0.0410  250 219 
 COP      P       0100 43.10                              49    0.0310  287 171 
 COP      S       0101 14.57                              49   -0.0110  287 171 
                                                                                
