 2010  219 0059 59.9 L  58.178  11.828 22.0F TES  3 0.0                        1
 GAP=164        0.25       0.7     2.5  0.0 -0.1140E+01  0.0000E+00  0.0000E+00E
 ACTION:UP  11-11-29 22:15 OP:ke   STATUS:               ID:20100219210859 L   I
 STAT SP IPHASW D HRMM SECON CODA AMPLIT PERI AZIMU VELO AIN AR TRES W  DIS CAZ7
 HFS      Pg      0100 37.48                              92    0.0310  243  25 
 HFS      Sg      0101 04.84                              92   -0.0410  243  25 
 MUD      Pg      0100 38.55                              92    0.0310  250 221 
 MUD      Sg      0101 06.69                              92   -0.0310  250 221 
 COP      Pg      0100 43.10                              92    0.0310  280 172 
 COP      Sg      0101 14.57                              92   -0.0310  280 172 
                                                                                
