 2004  416 0811 16.4 LE 57.670  10.609  0.0F DNK 27 1.0 3.6LDNK 2.5CDNK        1
 GAP=166        5.19      12.2    15.3  0.0  0.7135E+02  0.5676E+02  0.9996E+02E
 ACTION:SPL 11-09-19 12:44 OP:ke   STATUS:               ID:20040416081116 L   I
 2004  416 0811 19.5 L  57.732  10.618  0.0  BER  9 1.1 1.7LBER 2.1CBER 2.4LNAO1
 2004 0416 0811 20.0 L  57.854  10.727  4.8  NAO  3 0.4                 2.4LNAO1
                 9.9     0.6     0.4   50.3                                    5
 2004-04-16-0811-28S.KMY___003                                                 6
 2004-04-16-0811-26S.ODD___003                                                 6
 2004-04-16-0811-36S.WNN___003                                                 6
 2004-04-16-0811-26S.BLS___003                                                 6
 2004-04-16-0810-00S.MUD___003                                                 6
 2004-04-16-0811-00S.BSD___003                                                 6
 sok: 16 APR 08:10 5738.0N 01042.0E 19M sand et stk mine type 25               3
     542  DENMARK                                                              3
 STAT SP IPHASW D HRMM SECON CODA AMPLIT PERI AZIMU VELO AIN AR TRES W  DIS CAZ7
 DELU BZ  P       0811 53.40                  310.1       49  5-0.1810  239 123 
 VXJU BZ  P       0811 57.66                  292.2       49  3-0.3310  274 106 
 EKSU BZ  P       0811 59.46                  254.7       49-18 0.6510  281  90 
 ASKU BT  S       0812 34.56                              49    4.35 4  283  59 
 LNKU BZ  P       0812  1.21                  246.1       49-13 0.4510  296  76 
 BLS5 SZ EP        812  3.08  101                         49    0.4810  311 311 
 BLS5 SE ES        812 36.74                              49    0.4010  311 311 
 BLS5 SZ  AML      812 48.92         7.5 0.41                           311 311 
 HFS      Pn  4   0812 04.6                               49    0.00 0  327  32 
 HFS  SZ  Pn      0812 04.78                  222.0  8.4  49  8 0.1810  327  32 
 HFS  SZ  Pg      0812 09.23                  210.0  6.9  90 -3-1.0210  327  32 
 HFS      p   4   0812 10.0                               49    5.40 0  327  32 
 HFS      p   4   0812 13.6                               49    9.00 0  327  32 
 HFS      p   4   0812 16.3                               49   11.70 0  327  32 
 HFS      s   4   0812 20.9                               49   -18.9 0  327  32 
 HFS      p   4   0812 28.6                               49   24.00 0  327  32 
 HFS      Sn      0812 33.3                               49   -6.51 0  327  32 
 HFS      s   4   0812 40.8                               49    0.99 0  327  32 
 HFS      Lg      0812 42.9        1.0   8.12             56   -5.87 0  327  32 
 HFS  SZ  Lg      0812 46.85                  216.5  4.0   0  2         327  32 
 HFS      s   4   0812 47.8                               49    7.99 0  327  32 
 HFS      s   4   0812 48.4                               49    8.59 0  327  32 
 HFS      s   4   0812 52.9                               49   13.09 0  327  32 
 HFS      s   4   0812 55.8                               49   15.99 0  327  32 
 NRAU BZ  P       0812  9.37                  239.4       49  7 4.01 5  333  49 
 OSKU BZ  P       0812  5.58                  321.8       49 40 0.1410  334  97 
 ODD1 SZ EP        812  6.03                              49   -0.1710  340 319 
 ODD1 SN ES        812 41.92                              49   -0.6510  340 319 
 BLEU BZ  P       0812  6.53                              49   -1.0310  351 113 
 KMY  SZ EP        812  8.45   94                         49    0.1410  357 301 
 KMY  SZ ES        812 45.38                              49   -0.8510  357 301 
 VIKU BZ  P       0812 10.75                  245.8       49-11 0.7110  371  73 
 ESKU BZ  P       0812 11.70                  258.8       49 14 0.5610  380  60 
 BSD  HZ IP        812 10.97                              49   -1.38 9  389 135 
 BSD  HE ILG       813  6.75                               0    0.3610  389 135 
 EGD  SZ EP        812 16.64                              49    0.0110  424 315 
 EGD  SZ ES        813  0.28                              49   -0.3410  424 315 
 BER  SZ EP        812 17.50                              49    0.3810  428 317 
 ASK  SZ EP        812 19.07                              49    0.3210  441 318 
 BACU BZ  P       0812 20.13                  209.3       49-30 0.5310  448  54 
 NYNU BZ  P       0812 21.27                  267.2       49 13 0.4210  458  68 
 OSTU BZ  P       0812 22.99                  215.8       49-19 0.4510  471  50 
 NRTU BZ  P       0812 28.57                  250.5       49  3 0.4710  516  61 
 GRAU BZ  P       0812 31.24                  231.9       49 -7-0.2910  543  54 
 FIA0 SZ  Pn      0813 23.15                  251.0  9.5  49  0-1.1710  967  58 
 FIA0 SZ  Sn      0814 58.60                  248.7  5.3  49 -1 0.8810  967  58 
 FIA0 SZ  Lg      0815 49.32                  249.1  4.3  90 -1-0.3410  967  58 
 FIN      Pn      0813 23.2                               49   -1.1710  968  58 
 FIN      Lg      0815 49.3      275.4   2.09              0   -0.4410  968  58 
 ARC      Pn      0814 27.7                               49   -3.77 5 1506  23 
 ARC      p   4   0814 35.0                               46    9.94 0 1506  23 
 ARA0 SZ  P       0814 26.20                  213.0  8.3  46 -2 1.1510 1506  23 
                                                                                
