 2003 12 4 1248  7.4ALE 56.215  11.082  0.0F TA   6 1.0 2.6LTA  3.2CTA         1
 GAP=159        4.96      14.5    32.3  0.0  0.1469E+03  0.0000E+00  0.0000E+00E
 ACTION:UPD 11-03-10 09:39 OP:ke   STATUS:               ID:20031204124749 L   I
 2003 12 4 1243 10.6 L                                                         1
 2003-12-04-1243-10S.DNK___021                                                 6
 2003 12 4 1247 48.8 L  56.154  10.880 15.0F BER  3 1.3 2.6LBER 2.9CBER 2.7LNAO1
 Stations too far for reliable depth estimate. Fixed at 15 km. mbs             3
 2003-12-04-1246-30S.KONO__003                                                 6
 2003 1204 1247 45.2 L  56.200  10.336 10.6  NAO  3 1.5                 2.7LNAO1
                 6.3     0.3     0.1   36.7                                    5
     542  DENMARK                                                              3
 pv: sok: pos 56 10,0n 11 23,5e 041230utc to miner ialt 1190kg                 3
 STAT SP IPHASW D HRMM SECON CODA AMPLIT PERI AZIMU VELO AIN AR TRES W  DIS CAZ7
 COP  HZ IP       1248  7.36                              28    1.8410  103 124 
 MUD  HZ IP       1248 10.95                              28    2.5610  121 284 
 BSD  HZ IP       1248 23.92                              22   -4.6510  271 115 
 BSD  HN IS       1249  2.12                              22    2.9710  271 115 
 KONO BZ EP       1248 42.20  166                         22   -1.6510  392 348 
 KONO BZ  AML     1249 45.61        34.6 0.39                           392 348 
 HFS  SZ  Pn      1248 50.72                  206.7  8.8  22  6-1.9310  463  18 
 HFS  SZ  Sn      1249 40.37                  199.8  4.4  22  0-0.6810  463  18 
 HFS  SZ  Lg      1249 58.78                  205.0  3.5  52  4 3.0110  463  18 
 HFC2 BZ IP   4   1248 50.52                              22   -2.13 0  463  18 
 FIA0 SZ  P       1250 00.17                  240.7  9.3  20 -1-1.4710 1040  50 
                                                                                
 2003 12 4 1328 44.6ALE 55.669  12.429  0.0F TA   6 5.0 2.7LTA  3.3CTA         1
 GAP=184       23.63      66.7    82.9  0.0  0.3327E+04  0.0000E+00  0.0000E+00E
 ACTION:UPD 11-03-10 09:39 OP:ke   STATUS:               ID:20031204132821 L   I
 2003-12-04-1325-48S.DNK___009                                                 6
 2003-12-04-1325-00S.DNK___012                                                 6
 2003-12-04-1327-16S.KONO__003                                                 6
 2003 12 4 1328 25.8 L  56.376  11.171 15.0F BER  3 1.3 2.5LBER 2.9CBER 2.7LNAO1
 Stations too far for reliable depth estimate. Fixed at 15 km. mbs             3
 2003 1204 1328 21.3 L  56.352  11.003       NAO  3 1.7                 2.7LNAO1
                 3.0     0.2     0.1   -1.0                                    5
     542  DENMARK                                                              3
 mag: HFS er fra norsar auto, mens HFA1 er egne afl.                           3
 pv: sok: pos 56 10,0n 11 23,5e 041330 to miner ialt 1190 kg                   3
 STAT SP IPHASW D HRMM SECON CODA AMPLIT PERI AZIMU VELO AIN AR TRES W  DIS CAZ7
 BSD  HZ IP       1328 58.08                              22   14.7510  169 110 
 BSD  HE IS       1329 27.56                              22   23.0310  169 110 
 BSD  HN ISG      1329 32.30                              90   -22.210  169 110 
 BSD  HZ ESG      1329 33.43                                            169 110 
 MUD  HZ IP       1328 44.63                              22   -5.1310  221 295 
 MUD  HN IS       1329  4.46                              22   -11.310  221 295 
 KONO BZ EP       1329 16.16  169                         22   -5.3510  474 340 
 KONO BZ  AML     1330 19.73        33.5 0.40                           474 340 
 HFS  SZ  Pn      1329 24.22                  201.9  8.6  22 13-0.8810  503   8 
 HFS  SZ  Sn      1330 11.39                  192.0  4.2  22  3-5.8210  503   8 
 HFS  SZ  Lg      1330 27.44                  194.5  3.6  22  5-6.9210  503   8 
 HFA1 SZ IP       1329 24.79                              22   -0.4510  504   8 
 FIA0 SZ  P       1330 33.95                  245.2  8.9  20  8 7.3710 1019  45 
 FIA0 SZ  Lg      1333 10.57                  250.6  3.9  92 1412.8410 1019  45 
                                                                                
