 2003  9 6 0043 18.0AL  57.345  11.319 15.0  TA   418.2 3.3CTA                 1
 GAP=149       32.91      65.2   183.3  0.0 -0.1780E+04  0.0000E+00  0.0000E+00E
 ACTION:UPD 11-03-10 09:39 OP:ke   STATUS:               ID:20030906004249 L   I
 2003  9 6 0042 51.1 L  57.477  11.646  0.0  BER  3 1.4                        1
 2003-09-06-0039-59S.DNK___009                                                 6
 ber: S file from KMS, Denmark. January 2004, mbs                              3
 STAT SP IPHASW D HRMM SECON CODA AMPLIT PERI AZIMU VELO AIN AR TRES W  DIS CAZ7
 MUD     IP         43 18.0                               52    5.5710  164 234 
 MUD     IS         43 43.00                              52   11.4610  164 234 
 COP     IP   4     43 35.00                              52   18.44 0  197 159 
 COP     IS   4     44 15.00                              52   36.28 0  197 159 
 BSD  HZ IP        043 37.21  203                         52    3.5510  334 137 
 BSD  HZ I         043 42.90                                            334 137 
 BSD  HN ES        044 13.63                              52    5.1510  334 137 
 BSD  HZ ISG       044 23.91                              92    3.3610  334 137 
 HFS      P        043 35.6                               52    1.1310  340  23 
 HFS      Sn       044 07.6                               52   -2.2910  340  23 
 HFS      S         44 11.4                               52    1.5110  340  23 
 HFS      Lg        44 20.5                                0   -0.4710  340  23 
 FIN      Pn        44 49.3                               52   -67.4 7 1477 190 
                                                                                
