 2004  416 0811 57.7ALE 57.212  10.368  0.0F TA  27 8.4 3.4LTA  2.5CTA         1
 GAP=122       39.04      68.9   111.2  0.0  0.1389E+04  0.0000E+00  0.0000E+00E
 ACTION:UPD 11-03-10 09:39 OP:ke   STATUS:               ID:20040416081116 L   I
 2004  416 0811 19.5 L  57.732  10.618  0.0  BER  9 1.1 1.7LBER 2.1CBER 2.4LNAO1
 2004 0416 0811 20.0 L  57.854  10.727  4.8  NAO  3 0.4                 2.4LNAO1
                 9.9     0.6     0.4   50.3                                    5
 2004-04-16-0811-28S.KMY___003                                                 6
 2004-04-16-0811-26S.ODD___003                                                 6
 2004-04-16-0811-36S.WNN___003                                                 6
 2004-04-16-0811-26S.BLS___003                                                 6
 2004-04-16-0810-00S.MUD___003                                                 6
 2004-04-16-0811-00S.BSD___003                                                 6
 sok: 16 APR 08:10 5738.0N 01042.0E 19M sand et stk mine type 25               3
     542  DENMARK                                                              3
 STAT SP IPHASW D HRMM SECON CODA AMPLIT PERI AZIMU VELO AIN AR TRES W  DIS CAZ7
 DELU BZ  P       0811 53.40                  310.1       49                    
 VXJU BZ  P       0811 57.66                  292.2       22 14 8.2110  279  95 
 EKSU BZ  P       0811 59.46                  254.7       22 -9 7.4710  299  80 
 ASKU BT  S       0812 34.56                              22    4.1610  323  53 
 LNKU BZ  P       0812  1.21                  246.1       22 -5 5.9110  326  68 
 BLS5 SZ EP        812  3.08  101                         22    6.3710  336 319 
 BLS5 SE ES        812 36.74                              22    3.2710  336 319 
 BLS5 SZ  AML      812 48.92         7.5 0.41                           336 319 
 OSKU BZ  P       0812  5.58                  321.8       22 49 7.7610  346  88 
 BLEU BZ  P       0812  6.53                              22    8.4910  348 105 
 BSD  HZ IP        812 10.97                              22   10.6410  366 128 
 BSD  HE ILG       813  6.75                              22   17.9210  366 128 
 ODD1 SZ EP        812  6.03                              22    4.9310  371 326 
 ODD1 SN ES        812 41.92                              22    0.8010  371 326 
 KMY  SZ EP        812  8.45   94                         22    7.1510  374 309 
 KMY  SZ ES        812 45.38                              22    3.9110  374 309 
 HFS      Pn  4   0812 04.6                               22    2.73 0  378  29 
 HFS  SZ  Pn      0812 04.78                  222.0  8.4  22 10 2.9110  378  29 
 HFS  SZ  Pg      0812 09.23                  210.0  6.9  90 -1-66.010  378  29 
 HFS      p   4   0812 10.0                               22    8.13 0  378  29 
 HFS      p   4   0812 13.6                               22   11.73 0  378  29 
 HFS      p   4   0812 16.3                               22   14.43 0  378  29 
 HFS      s   4   0812 20.9                               22   -21.6 0  378  29 
 HFS      p   4   0812 28.6                               22   26.73 0  378  29 
 HFS      Sn      0812 33.3                               22   -9.1610  378  29 
 HFS      s   4   0812 40.8                               22   -1.66 0  378  29 
 HFS      Lg      0812 42.9        1.0   8.12             52   -9.2010  378  29 
 HFS  SZ  Lg      0812 46.85                  216.5  4.0   0  4         378  29 
 HFS      s   4   0812 47.8                               22    5.34 0  378  29 
 HFS      s   4   0812 48.4                               22    5.94 0  378  29 
 HFS      s   4   0812 52.9                               22   10.44 0  378  29 
 HFS      s   4   0812 55.8                               22   13.34 0  378  29 
 NRAU BZ  P       0812  9.37                  239.4       22 11 7.4610  379  44 
 VIKU BZ  P       0812 10.75                  245.8       22 -5 5.9410  402  66 
 ESKU BZ  P       0812 11.70                  258.8       22 19 4.7810  419  55 
 EGD  SZ EP        812 16.64                              22    5.6010  452 321 
 EGD  SZ ES        813  0.28                              22    1.8710  452 321 
 BER  SZ EP        812 17.50                              22    5.8010  457 323 
 ASK  SZ EP        812 19.07                              22    5.7010  471 323 
 BACU BZ  P       0812 20.13                  209.3       22-26 4.3110  490  50 
 NYNU BZ  P       0812 21.27                  267.2       22 18 5.2510  492  63 
 OSTU BZ  P       0812 22.99                  215.8       22-16 3.9610  516  47 
 NRTU BZ  P       0812 28.57                  250.5       22  7 4.7310  555  57 
 GRAU BZ  P       0812 31.24                  231.9       22 -4 3.4310  586  50 
 FIA0 SZ  Pn      0813 23.15                  251.0  9.5  22  2 2.6610 1008  56 
 FIA0 SZ  Sn      0814 58.60                  248.7  5.3  22  0-0.6410 1008  56 
 FIA0 SZ  Lg      0815 49.32                  249.1  4.3  48  0 2.4310 1008  56 
 FIN      Pn      0813 23.2                               22   -53.2 7 1454 187 
 FIN      Lg      0815 49.3      275.4   2.09             48   -99.9 7 1454 187 
 ARA0 SZ  P       0814 26.20                  213.0  8.3  20 -2 3.67 6 1559  22 
 ARC      Pn      0814 27.7                               22   -99.9 0 8334 326 
 ARC      p   4   0814 35.0                               20   -99.9 0 8334 326 
                                                                                
