 2005  2 3 1550  3.2ALE 56.654  12.143  0.0F TA  11 7.5 3.1CTA                 1
 GAP= 94       31.81      45.7   134.3  0.0  0.7513E+03  0.0000E+00  0.0000E+00E
 ACTION:UPD 11-03-10 09:39 OP:ke   STATUS:               ID:20050203154947 L   I
 2005  2 3 1549 52.0 L  56.289  11.363 15.0F BER  8 1.3 1.8LBER 2.7CBER 3.0LNAO1
 2005 0203 1549 48.4 L  56.267  11.152       NAO  5 0.8                 3.0LNAO1
                 3.1     0.2     0.5   -1.0                                    5
 2005-02-03-1540-00S.MUD___003                                                 6
 2005-02-03-1540-55S.BSD___003                                                 6
 2005-02-03-1541-00S.COP___003                                                 6
 2005-02-03-1550-17S.ODD___003                                                 6
 2005-02-03-1550-14S.BLS___003                                                 6
 2005-02-03-1550-06S.KONO__003                                                 6
 2005-02-03-1549-59S.SNART_003                                                 6
 ber: depth fixed to 15 km. continental crust                                  3
 pv: se event 1feb2005                                                         3
 pv: 031547Z FEB/KATTEGAT SYD/5610,040N-01130.170E/20M/SAND/800KG TNT          3
     542  DENMARK                                                              3
 STAT SP IPHASW D HRMM SECON CODA AMPLIT PERI AZIMU VELO AIN AR TRES W  DIS CAZ7
 COP  HZ IP       1550  3.23                              28   -3.7410  109 170 
 COP  HE ES       1550 15.48                              28   -5.7410  109 170 
 MUD  HZ IP     C 1550 14.00                              22   -4.1710  184 264 
 MUD  HN IS       1550 34.34                              22   -6.3810  184 264 
 BSD  HZ IP       1550 24.98                              22   -0.6910  244 134 
 BSD  HN IS       1550 55.99                              22    2.2210  244 134 
 SNARTSZ EP       1550 37.04                              22   -1.9610  350 304 
 KONO BZ EP   9   1551 45.71  201                         22   64.76 0  366 337 
 HFS  SZ  Pn      1550 52.18                  203.1  8.1  22  9 7.1610  398  13 
 HFS  SZ  Pg      1551 03.19                  194.4  7.4  90  1-59.510  398  13 
 HFS  SZ  Sn      1551 40.98                  205.8  3.8  22 1213.5410  398  13 
 HFS  SZ  Lg      1551 56.84                  204.4  3.3  93 1118.5610  398  13 
 BLS5 SZ EP       1550 53.18                              22    0.8610  456 315 
 BLS5 SN ES       1551 38.82                              22   -1.3110  456 315 
 NC6  SZ  Pn      1550 57.45                              22    4.9610  458 355 
 NC6  SZ  Lg      1552 10.65                              52   15.7910  458 355 
 ODD1 SZ EP       1550 56.63  107                         22    0.5010  486 321 
 ODD1 SZ ES       1551 42.80                              22   -3.9710  486 321 
 NB2  SZ  Pn      1551 01.20                              22    4.3610  492 354 
 NB2  SZ  Lg      1552 17.77                              52   13.5310  492 354 
 FIA0 SZ  Pn      1552 00.80                  244.1  9.3  22  2 5.7710  959  50 
 ARA0 SZ  Pn      1553 13.15                  207.2  8.0  22 -3 0.50 6 1579  19 
                                                                                
