 2005  4 8 1611 56.0ALP 57.537   9.488  0.0F TA  1321.6 2.0LTA  3.0CTA         1
 GAP=115       97.03     109.7   222.7  0.0  0.1767E+05  0.0000E+00  0.0000E+00E
 ACTION:UPD 11-03-10 09:39 OP:ke   STATUS:               ID:20050408161132 L   I
 2005  4 8 1611 35.2 L  57.166  10.862  0.0  BER 10 1.3 3.0CBER 2.2LBER 2.2LNAO1
 2005 0408 1611 34.8 L  57.253  10.954       NAO  3 1.4                 2.2LNAO1
                 2.6     0.2     0.3   -1.0                                    5
 2005-04-08-1606-00S.MUD___003                                                 6
 2005-04-08-1607-07S.BSD___003                                                 6
 2005-04-08-1611-00S.COP___003                                                 6
 2005-04-08-1612-32S.KMY___003                                                 6
 2005-04-08-1612-30S.ODD___003                                                 6
 2005-04-08-1613-08S.WNN___003                                                 6
 2005-04-08-1611-59S.BLS___003                                                 6
 2005-04-08-1610-41S.KONO__003                                                 6
 2005-04-08-1612-04S.SNART_003                                                 6
     542  DENMARK                                                              3
 STAT SP IPHASW D HRMM SECON CODA AMPLIT PERI AZIMU VELO AIN AR TRES W  DIS CAZ7
 MUD  HZ IP       1611 56.02                              28   30.8810  122 189 
 MUD  HN IS       1612 12.55                              28   31.6610  122 189 
 SNARTSN ES       1612 39.07                              28   47.1110  162 304 
 SNARTSZ  AML     1612 48.61        23.8 0.49                           162 304 
 KONO BZ EP       1612 15.95  227                         22   35.1410  235   2 
 KONO BN ES       1612 49.05                              22   40.8910  235   2 
 COP  HZ IP       1612  4.06                              22   18.4710  274 138 
 COP  HZ IP       1612  4.06                              66            274 138 
 COP  HE IS       1612 22.32                              66            274 138 
 COP  HE IS       1612 22.32                              22    5.8310  274 138 
 COP  HZ ISg      1612 26.92                              90   -78.610  274 138 
 COP  HZ ISg      1612 26.92                              90            274 138 
 BLS5 SZ EP       1612 25.48  110                         22   39.6710  275 321 
 BLS5 SN ESg      1613 16.07                              90   -29.710  275 321 
 BLS5 SZ  AML     1613 20.77        16.8 0.47                           275 321 
 KMY  SZ ESg      1613 26.87                              90   -40.110  310 309 
 ODD1 SZ ESg      1613 25.48                              90   -42.510  312 329 
 ODD1 SZ  AML     1613 27.13        19.1 0.32                           312 329 
 HFS  SZ  Pn      1612 27.54                  213.5  9.1  22 -728.9310  378  38 
 HFS  SZ  Pg      1612 32.52                  201.2  8.2  90-20-39.310  378  38 
 HFS  SZ  Sn      1613 05.83                  209.1  5.9  22-1226.7010  378  38 
 HFS  SZ  Lg      1613 15.04                  211.4  3.9  22 -926.3110  378  38 
 EGD  SZ ESg      1613 48.63                              90   -65.910  391 323 
 NB2  SZ  Pn      1612 33.82                  220.8  6.1  22 2631.9710  402  13 
 NB2  SZ  Sn      1613 20.57                              22   35.8110  402  13 
 NB2  SZ  Lg      1613 35.20                  176.6  3.8   0-1739.5710  402  13 
 ASK  SZ ESg      1613 53.50                              90   -72.410  410 325 
 BSD  HZ IP       1612 20.17                              22   15.0210  430 127 
 BSD  HZ IP       1612 20.17                              49            430 127 
 BSD  HZ I        1612 26.93                                            430 127 
 BSD  HZ I        1612 26.93                                            430 127 
 BSD  HN IS       1612 53.74                              22    3.2210  430 127 
 BSD  HN IS       1612 53.74                              49            430 127 
 BSD  HZ ISg      1613  7.65                              90   -99.910  430 127 
 BSD  HZ ISg      1613  7.65                              90            430 127 
 FIA0 SZ  Pn      1613 44.00                  233.6  9.0  22-1823.6310 1032  58 
 FIA0 SZ  Lg      1616 08.42                  253.2  5.2  91  117.8910 1032  58 
                                                                                
