 2003 12 4 1247 48.1 LE 56.231  11.108  0.0F TES  6 1.1 2.6LTES 3.2CTES        1
 File deleted from data base ORIG_ by ke   at 11-09-19 12:41                   3
 GAP=157        5.35      15.5    34.3  0.0  0.1646E+03  0.0000E+00  0.0000E+00E
 ACTION:UP  11-09-19 11:50 OP:ke   STATUS:               ID:20031204124749 L   I
 2003 12 4 1243 10.6 L                                                         1
 2003-12-04-1243-10S.DNK___021                                                 6
 2003 12 4 1247 48.8 L  56.154  10.880 15.0F BER  3 1.3 2.6LBER 2.9CBER 2.7LNAO1
 Stations too far for reliable depth estimate. Fixed at 15 km. mbs             3
 2003-12-04-1246-30S.KONO__003                                                 6
 2003 1204 1247 45.2 L  56.200  10.336 10.6  NAO  3 1.5                 2.7LNAO1
                 6.3     0.3     0.1   36.7                                    5
     542  DENMARK                                                              3
 pv: sok: pos 56 10,0n 11 23,5e 041230utc to miner ialt 1190kg                 3
 STAT SP IPHASW D HRMM SECON CODA AMPLIT PERI AZIMU VELO AIN AR TRES W  DIS CAZ7
 COP  HZ IP       1248  7.36                              90    2.3610  103 126 
 MUD  HZ IP       1248 10.95                              90    2.7310  122 283 
 BSD  HZ IP       1248 23.92                              49   -5.2510  270 116 
 BSD  HN IS       1249  2.12                              49    2.9610  270 116 
 KONO BZ EP       1248 42.20  166                         49   -2.0810  391 347 
 KONO BZ  AML     1249 45.61        34.6 0.39                           391 347 
 HFS  SZ  Pn      1248 50.72                  206.7  8.8  49  6-2.2110  460  18 
 HFS  SZ  Sn      1249 40.37                  199.8  4.4  49  0 0.1010  460  18 
 HFS  SZ  Lg      1249 58.78                  205.0  3.5   0  5 2.7910  460  18 
 HFC2 BZ IP   4   1248 50.52                              49   -2.41 0  460  18 
 FIA0 SZ  P       1250 00.17                  240.7  9.3  46 -1-1.4510 1038  50 
                                                                                
