 2003  9 6 0042 44.5 L  57.499  10.641223.0  TES  4 2.7 3.4CTES                1
 File deleted from data base ORIG_ by ke   at 11-09-19 12:41                   3
 GAP=172        6.94      24.0    79.5 87.6  0.3683E+03 -0.4294E+04 -0.1236E+04E
 ACTION:UP  11-09-19 11:47 OP:ke   STATUS:               ID:20030906004249 L   I
 2003  9 6 0042 51.1 L  57.477  11.646  0.0  BER  3 1.4                        1
 2003-09-06-0039-59S.DNK___009                                                 6
 ber: S file from KMS, Denmark. January 2004, mbs                              3
 STAT SP IPHASW D HRMM SECON CODA AMPLIT PERI AZIMU VELO AIN AR TRES W  DIS CAZ7
 MUD     IP         43 18.0                              145    0.0310  147 218 
 MUD     IS         43 43.00                             145    0.5910  147 218 
 COP     IP   4     43 35.00                             131   10.43 0  230 151 
 COP     IS   4     44 15.00                             131   21.17 0  230 151 
 HFS      P        043 35.6                              120    0.2010  342  30 
 HFS      Sn       044 07.6                               49            342  30 
 HFS      S         44 11.4                              120   -1.1610  342  30 
 HFS      Lg        44 20.5                                0    0.9210  342  30 
 BSD  HZ IP        043 37.21  203                        117   -1.5110  375 133 
 BSD  HZ I         043 42.90                                            375 133 
 BSD  HN ES        044 13.63                             117   -4.6810  375 133 
 BSD  HZ ISG       044 23.91                             117    5.6010  375 133 
 FIN      Pn        44 49.3                               49           1488 188 
                                                                                
