 2003  822 0349 38.1 L  56.665  11.518 15.0  DNK 11 1.2 3.2LDNK 3.3CDNK        1
 GAP=110        3.86       6.6    12.7 12.0  0.2529E+02  0.2142E+02 -0.2875E+01E
 ACTION:UPD 10-12-20 09:37 OP:pv   STATUS:               ID:20030822034938 L   I
 NET WAV EVE COP_CFTP R0109_2003_08_22_0336_00T.COP_03_C         TRANSFERRED   3
 NET WAV EVE COP_CFTP 2003-08-22-0336-00S.COP___003              AUTOPICK      3
 2003-08-22-0336-00S.COP___003                                                 6
 2003  822  337  0   L                      *BSD  1                            1
 NET WAV EVE BSD_CFTP R0857_2003_08_22_0337_00T.BSD_03_C         TRANSFERRED   3
 NET WAV EVE BSD_CFTP 2003-08-22-0337-00S.BSD___003              AUTOPICK      3
 2003-08-22-0337-00S.BSD___003                                                 6
 2003  822  339  0   L                      *MUD  1                            1
 NET WAV EVE MUD_CFTP R0063_2003_08_22_0339_00T.BSD_03_C         TRANSFERRED   3
 NET WAV EVE MUD_CFTP 2003-08-22-0339-00S.MUD___003              AUTOPICK      3
 2003-08-22-0339-00S.MUD___003                                                 6
 2003  822  349 40.5 L  56.610  11.462 39.8  DA         3.2LDA                 1
 pv: DA is dalist, modified hypo71 location:                                   3
 pv:    y  m  d  h  m    s   deg min N  deg  min E  depth  Ml                  3
 pv:    03 08 22 03 49 40.5  56  36.64  11  27.7    39.8  3.2                  3
 STAT SP IPHASW D HRMM SECON CODA AMPLIT PERI AZIMU VELO AIN AR TRES W  DIS CAZ7
 COP  HZ IP        349 59.44                              66    1.82 9  123 152 
 COP  HN IS        350 13.57                              66    1.67 9  123 152 
 MUD  HZ IPn       350  2.14                              49    0.0310  146 262 
 MUD  HZ IPg       350  3.77                              96    1.51 9  146 262 
 MUD  HE IS        350 18.89                              66    1.0210  146 262 
 BSD  HZ IPN       350 16.89                              49   -1.1410  274 128 
 BSD  HZ IPG       350 22.09                              93   -1.1610  274 128 
 BSD  HZ I         350 22.13                                            274 128 
 BSD  HN ES        350 45.62                              49   -1.59 9  274 128 
 BSD  HE ES   4    350 52.71                              49    5.50 0  274 128 
 BSD  HN ISG       350 54.28                              93   -1.96 9  274 128 
 BSD  HZ E         350 59.67        57.0  0.3                           274 128 
 KONO BZ EP        350 27.39  199                         49   -0.2610  351 342 
 KONO BZ ESg       351 16.97                              92   -1.24 9  351 342 
 KONO BZ  AML      351 22.77       149.0 0.40                           351 342 
 HFS  SZ  Pn      0350 35.25                  204.4 10.6  49  5 0.6410  407  17 
 HFS  SZ  Pg      0350 45.90                  197.1  8.2  92 -1 0.7610  407  17 
 HFS  SZ  Sn      0351 18.68                  209.1  6.4  49 10 2.79 8  407  17 
 HFS  SZ  Lg      0351 33.65                  208.2  3.5  46  9 0.6610  407  17 
 KMY  SZ EP        350 41.79                              49   -0.3010  467 310 
 KMY  SZ ES        351 27.13                              49   -1.70 9  467 310 
 KMY  SZ  AML      351 30.50        14.4 0.80                           467 310 
 EGD  SZ EP        350 50.95                              49   -0.6910  544 320 
 EGD  SZ ES        351 45.32                              49   -0.0310  544 320 
 EGD  SZ  AML      352 26.59         9.6 0.68                           544 320 
 ASK  SZ EP        350 53.36                              46   -0.5110  562 322 
 ASK  SZ ES        351 47.67                              46   -1.54 9  562 322 
 ASK  SZ  AML      352 40.06        11.1 0.68                           562 322 
 FIN      Pn  4    351 49.2                               49    2.26 0  988  51 
 FIN      Sn  4    353 38.1                               49   17.09 0  988  51 
 FIN      S   4    353 44.4                               46   28.50 0  988  51 
 FIA0 SZ  Pn      0351 47.07                  252.2  9.0  49  8 0.1810  988  51 
 FIA0 SZ  Sn      0353 21.50                              49    0.5610  988  51 
 ARC      P   4    353 03.3                               46    8.37 0 1591  20 
 ARA0 SZ  P       0352 55.93                  209.4  8.4  46 -2 1.0010 1591  20 
 ARC      Pn  4    352 55.8                               49   -6.24 0 1591  20 
 ARC      P   4    353 08.3                               46   13.37 0 1591  20 
 ARC      Lg       357 15.0                               49    7.62 0 1591  20 
                                                                                
 2003  822 0349 38.3 L  56.698  11.434 10.0F DNK 10 1.2 3.2LDNK 3.3CDNK        1
 GAP=109        2.94       5.0     9.8  0.0  0.1399E+02  0.2142E+02 -0.2875E+01E
 Rmsdep indicates 0-12km depth. Fixed at 10 km. mbs                            3
 2003  822 0349 40.2 L  56.530  11.291 15.0 SDNK 10 3.7 3.3CDNK 4.9LDNK        3
 ACTION:UPD 10-12-20 09:37 OP:pv   STATUS:               ID:20030822034940 L   I
 2003-08-22-0349-59S.WNN___004                                                 6
 2003-08-22-0350-15S.KMY___003                                                 6
 2003-08-22-0348-08S.KONO__003                                                 6
 2003 0822 0349 32.3 L  56.256  12.668       NAO  4 5.5                 3.1LNAO1
                 3.1     0.2     0.1   -1.0                                    5
     536  SWEDEN                                                               3
 2003  822  349 40.5 L  56.610  11.462 39.8  DA         3.2LDA                 1
 pv: DA is dalist, modified hypo71 location:                                   3
 pv:    y  m  d  h  m    s   deg min N  deg  min E  depth  Ml                  3
 pv:    03 08 22 03 49 40.5  56  36.64  11  27.7    39.8  3.2                  3
 STAT SP IPHASW D HRMM SECON CODA AMPLIT PERI AZIMU VELO AIN AR TRES W  DIS CAZ7
 COP  HZ IP        349 59.44                              66    0.4110  129 151 
 COP  HN IS        350 13.57                              66   -0.6110  129 151 
 MUD  HZ IPn       350  2.14                              49   -0.1710  142 260 
 MUD  HZ IPg       350  3.77                              94    2.10 9  142 260 
 MUD  HZ EP        350  8.61                              66    7.66 0  142 260 
 MUD  HE IS        350 18.89                              66    1.39 9  142 260 
 BSD  HZ IP        350 16.94                              49   -2.63 8  280 128 
 BSD  HZ I         350 22.13                                            280 128 
 BSD  HE ES        350 52.71                              49    3.00 7  280 128 
 BSD  HZ ISG       350 57.55                              92   -0.6310  280 128 
 KONO BZ EP        350 27.39  199                         49   -0.3810  346 343 
 KONO BZ ESg       351 16.97                              92    0.0510  346 343 
 KONO BZ  AML      351 22.77       149.0 0.40                           346 343 
 HFS  SZ  Pn      0350 35.25                  204.4 10.6  49  4 0.1310  405  18 
 HFS  SZ  Pg      0350 45.90                  197.1  8.2  91 -2 0.9010  405  18 
 HFS  SZ  Sn      0351 18.68                  209.1  6.4  49  9 2.07 9  405  18 
 HFS  SZ  Lg      0351 33.65                  208.2  3.5  49  8 1.0110  405  18 
 KMY  SZ EP        350 41.79                              49   -0.2710  461 310 
 KMY  SZ ES        351 27.13                              49   -1.49 9  461 310 
 KMY  SZ  AML      351 30.50        14.4 0.80                           461 310 
 EGD  SZ EP        350 50.95                              49   -0.6810  538 320 
 EGD  SZ ES        351 45.32                              49    0.1410  538 320 
 EGD  SZ  AML      352 26.59         9.6 0.68                           538 320 
 ASK  SZ EP        350 53.36                              49   -0.5310  556 322 
 ASK  SZ ES        351 47.67                              49   -1.42 9  556 322 
 ASK  SZ  AML      352 40.06        11.1 0.68                           556 322 
 FIA0 SZ  Pn      0351 47.07                  252.2  9.0  49  8-0.7910  989  52 
 FIA0 SZ  Sn      0353 21.50                              49   -0.9510  989  52 
 ARA0 SZ  P       0352 55.93                  209.4  8.4  46 -2 0.4110 1589  20 
                                                                                
 2003  9 6 0042 49.4 L  57.484  11.674  6.4  DNK  4 1.4 3.3CDNK                1
 GAP=146        3.79       7.7    20.9 19.2 -0.2776E+02  0.4297E+02 -0.2471E+02E
 ACTION:UPD 10-12-20 09:37 OP:pv   STATUS:               ID:20030906004249 L   I
 2003  9 6 0042 51.1 L  57.477  11.646  0.0  BER  3 1.4                        1
 2003-09-06-0039-59S.DNK___009                                                 6
 ber: S file from KMS, Denmark. January 2004, mbs                              3
 STAT SP IPHASW D HRMM SECON CODA AMPLIT PERI AZIMU VELO AIN AR TRES W  DIS CAZ7
 MUD     IP         43 18.0                               66   -1.61 9  190 234 
 MUD     IS         43 43.00                              66    1.33 9  190 234 
 COP     IP   4     43 35.00                              49   13.20 0  206 167 
 COP     IS   4     44 15.00                              49   29.54 0  206 167 
 HFS      P        043 35.6                               49   -0.1310  318  21 
 HFS      Sn       044 07.6                               49   -1.97 9  318  21 
 HFS      S         44 11.4                               49    1.83 9  318  21 
 HFS      Lg        44 20.5                               66    1.42 9  318  21 
 BSD  HZ IP        043 37.21  203                         49   -0.2610  332 141 
 BSD  HZ I         043 42.90                                            332 141 
 BSD  HN ES        044 13.63                              49    1.0710  332 141 
 BSD  HZ ISG       044 23.91                              91    0.0110  332 141 
 FIN      Pn        44 49.3                               49   -2.17 9  926  56 
                                                                                
 2003 12 4 1247 49.1 LE 56.318  11.099  0.0F DNK  6 1.6 3.2LDNK 3.2CDNK        1
 GAP=149        3.26      10.3    23.6  0.0  0.6956E+02  0.0000E+00  0.0000E+00E
 ACTION:UPD 10-12-20 09:37 OP:pv   STATUS:               ID:20031204124749 L   I
 2003 12 4 1243 10.6 L                                                         1
 2003-12-04-1243-10S.DNK___021                                                 6
 2003 12 4 1247 48.8 L  56.154  10.880 15.0F BER  3 1.3 2.6LBER 2.9CBER 2.7LNAO1
 Stations too far for reliable depth estimate. Fixed at 15 km. mbs             3
 2003-12-04-1246-30S.KONO__003                                                 6
 2003 1204 1247 45.2 L  56.200  10.336 10.6  NAO  3 1.5                 2.7LNAO1
                 6.3     0.3     0.1   36.7                                    5
     542  DENMARK                                                              3
 pv: sok: pos 56 10,0n 11 23,5e 041230utc to miner ialt 1190kg                 3
 STAT SP IPHASW D HRMM SECON CODA AMPLIT PERI AZIMU VELO AIN AR TRES W  DIS CAZ7
 COP  HZ IP       1248  7.36                              90    0.2210  109 130 
 MUD  HZ IP       1248 10.95                              90    2.01 9  120 278 
 BSD  HZ IP       1248 23.92                              49   -6.91 0  275 118 
 BSD  HN IS       1249  2.12                              49    0.8610  275 118 
 KONO BZ EP       1248 42.20  166                         49   -1.95 9  381 347 
 KONO BZ  AML     1249 45.61        34.6 0.39                           381 347 
 HFS  SZ  Pn      1248 50.72                  206.7  8.8  49  6-2.16 9  452  19 
 HFS  SZ  Sn      1249 40.37                  199.8  4.4  49  0 0.9610  452  19 
 HFS  SZ  Lg      1249 58.78                  205.0  3.5  47  4 2.07 9  452  19 
 HFC2 BZ IP   4   1248 50.52                              49   -2.36 0  452  19 
 FIA0 SZ  P       1250 00.17                  240.7  9.3  46 -1-1.81 9 1032  50 
                                                                                
 2003 12 4 1328 21.1 LE 56.251  11.505  0.0F DNK  6 1.2 3.2LDNK 3.2CDNK        1
 GAP=161        2.67       6.8    10.9  0.0  0.1740E+02  0.0000E+00  0.0000E+00E
 ACTION:UPD 10-12-20 09:37 OP:pv   STATUS:               ID:20031204132821 L   I
 2003-12-04-1325-48S.DNK___009                                                 6
 2003-12-04-1325-00S.DNK___012                                                 6
 2003-12-04-1327-16S.KONO__003                                                 6
 2003 12 4 1328 25.8 L  56.376  11.171 15.0F BER  3 1.3 2.5LBER 2.9CBER 2.7LNAO1
 Stations too far for reliable depth estimate. Fixed at 15 km. mbs             3
 2003 1204 1328 21.3 L  56.352  11.003       NAO  3 1.7                 2.7LNAO1
                 3.0     0.2     0.1   -1.0                                    5
     542  DENMARK                                                              3
 mag: HFS er fra norsar auto, mens HFA1 er egne afl.                           3
 pv: sok: pos 56 10,0n 11 23,5e 041330 to miner ialt 1190 kg                   3
 STAT SP IPHASW D HRMM SECON CODA AMPLIT PERI AZIMU VELO AIN AR TRES W  DIS CAZ7
 MUD  HZ IP       1328 44.63                              66   -0.4710  146 280 
 MUD  HN IS       1329  4.46                              66    1.83 9  146 280 
 BSD  HZ IP       1328 58.08                              49   -1.49 9  249 119 
 BSD  HE IS       1329 27.56                              49   -0.1110  249 119 
 BSD  HN ISG      1329 32.30                              90    0.2510  249 119 
 BSD  HZ ESG      1329 33.43                                            249 119 
 KONO BZ EP       1329 16.16  169                         49   -1.59 9  395 344 
 KONO BZ  AML     1330 19.73        33.5 0.40                           395 344 
 HFS  SZ  Pn      1329 24.22                  201.9  8.6  49  4-0.5510  451  16 
 HFS  SZ  Sn      1330 11.39                  192.0  4.2  49 -5 0.1210  451  16 
 HFS  SZ  Lg      1330 27.44                  194.5  3.6  49 -2-1.1110  451  16 
 HFA1 SZ IP       1329 24.79                              49   -0.0310  452  16 
 FIA0 SZ  P       1330 33.95                  245.2  8.9  46  3 1.74 9 1018  49 
 FIA0 SZ  Lg      1333 10.57                  250.6  3.9  47  9 2.06 9 1018  49 
                                                                                
 2004  223 0838 26.01L  55.516  12.184 36.3  DNK 50 0.9 2.9LDNK 3.0CDNK        1
 GAP= 85        2.89       3.3     6.7 10.4  0.6577E+00  0.1140E+02  0.1401E+01E
 ACTION:UPD 10-12-20 09:37 OP:pv   STATUS:               ID:20040223083826 L   I
 2004  223 0838 25.7 L  55.477  12.105 15.0F BER 16 1.9 2.5LBER 2.5CBER 2.8LNAO1
