 2008 1216 0520  2.2 LQ 55.514  13.324 15.3F UPP 15 0.7 4.4LUPP                1
                 0.2     0.018   0.098  0.0                                    5
 pv: what scale is WAR amplitudes ??                                           3
 2008 1216 0520 03.9 L  55.563  13.582 27.3  HEL 32 0.8 4.9LHEL                1
 GAP= 93         0.2     1.2     1.1    2.1             0.1                    5
 pv: macro info added 19 feb 2009 - max (5) is preliminary                     3
                        F   5                                                  2
 CSS:2008351052000.WFDISC                                                      6
 EARTHQUAKE, YSTAD, SWEDEN, FELT                                               3
 SYNT: MODEL--:     THICK        VP        VS      DENS        QP        QS    3
 SYNT: MODEL--:    15.000     6.070     3.509     2.600     0.000     0.000    3
 SYNT: MODEL--:    25.000     6.640     3.838     2.800     0.000     0.000    3
 SYNT: MODEL--:    40.000     8.030     4.642     3.000     0.000     0.000 N  3
 SYNT: MODEL--:    50.000     8.500     4.913     3.200     0.000     0.000    3
 SYNT: ST-D-RK:       0.0      45.0      90.0                                  3
 SYNT: DEPTH--:       9.0                                                      3
 SYNT: NPOINTS:       256                                                      3
 SYNT: TIMES--:     TOTAL    60.000   INITIAL     0.000  SY-TRACE    60.000    3
 SYNT: BOUPAR-:     300.0       600     0.001                                  3
 SYNT: PHASES-:        Pg        Sg       PmP       P2P       P1P              3
 SYNT: DT-Tsou:     0.050      .100                                            3
 SYNT: REDVELO:    8.0000                                                      3
 SYNT: COMPON-:    RADIAL                                                      3
 SYNT: STAT-AT:  no                                                            3
 SYNT: NSTAT--:         2------------------------------------------------------3
 SYNT: NEW STAT:---------------------------------------------------------------3
 SYNT: STATION: COP  HH Z  DISTANC:      65.6                                  3
 SYNT: STATION: COP        AZIMUTH:     275.0 BAZIMUTH:      94.0              3
 SYNT: NEW STAT:---------------------------------------------------------------3
 SYNT: STATION: BSD  HH Z  DISTANC:     108.0                                  3
 SYNT: STATION: BSD        AZIMUTH:     122.0 BAZIMUTH:     303.5              3
 2008 1216 0520  3.0 L  55.643  13.636 10.0F BER 32 1.8 4.6LBER 4.1CBER 4.7LNAO1
 2008 1216 0520  3.0 L                       BER        4.3WBER                1
 SPEC HOMBHH Z MO 15.1 ST135.9 OM  3.6 f0 3.73 R0.3378 AL 2.12 WI116.2 MW  4.0 3
 SPEC HOMBHH Z T 52136 K 0.000 GD  203 VS 3.60 DE 3.00 Q0440.0 QA 0.70 VS 3.60 3
 SPEC MOR8S  Z MO 15.7 ST 83.5 OM  4.0 f0 1.96 R0.6429 AL 3.21 WI113.0 MW  4.4 3
 SPEC MOR8S  Z T 52457 K 0.000 GD  344 VS 3.60 DE 3.00 Q0440.0 QA 0.70 VS 3.60 3
 SPEC KTK1HH Z MO 16.3 ST106.0 OM  4.5 f0 1.38 R0.9130 AL 2.81 WI145.3 MW  4.8 3
 SPEC KTK1HH Z T 52623 K 0.000 GD  395 VS 3.60 DE 3.00 Q0440.0 QA 0.70 VS 3.60 3
 SPEC SUE S  Z MO 15.1 ST 47.9 OM  3.5 f0 2.56 R0.4922 AL 4.50 WI107.6 MW  4.0 3
 SPEC SUE S  Z T 52316 K 0.000 GD  280 VS 3.60 DE 3.00 Q0440.0 QA 0.70 VS 3.60 3
 SPEC NSS B  Z MO 15.6 ST 60.6 OM  3.9 f0 1.96 R0.6429 AL 3.87 WI 72.9 MW  4.3 3
 SPEC NSS B  Z T 52429 K 0.000 GD  314 VS 3.60 DE 3.00 Q0440.0 QA 0.70 VS 3.60 3
 SPEC HYA S  Z MO 15.5 ST 36.1 OM  3.9 f0 1.73 R0.7283 AL 3.15 WI114.5 MW  4.3 3
 SPEC HYA S  Z T 52248 K 0.000 GD  272 VS 3.60 DE 3.00 Q0440.0 QA 0.70 VS 3.60 3
 SPEC TRO BH Z MO 16.1 ST 52.4 OM  4.3 f0 1.27 R0.9921 AL 3.04 WI101.2 MW  4.7 3
 SPEC TRO BH Z T 527 9 K 0.000 GD  397 VS 3.60 DE 3.00 Q0440.0 QA 0.70 VS 3.60 3
 SPEC STOKEH Z MO 16.1 ST 64.2 OM  4.4 f0 1.32 R0.9545 AL 3.57 WI 87.5 MW  4.7 3
 SPEC STOKEH Z T 52521 K 0.000 GD  344 VS 3.60 DE 3.00 Q0440.0 QA 0.70 VS 3.60 3
 SPEC SNAREH Z MO 15.2 ST 36.2 OM  3.7 f0 2.17 R0.5806 AL 3.16 WI114.3 MW  4.1 3
 SPEC SNAREH Z T 52151 K 0.000 GD  219 VS 3.60 DE 3.00 Q0440.0 QA 0.70 VS 3.60 3
 SPEC RUNDEH Z MO 15.3 ST 40.4 OM  3.7 f0 2.11 R0.5972 AL 3.54 WI136.2 MW  4.1 3
 SPEC RUNDEH Z T 52237 K 0.000 GD  266 VS 3.60 DE 3.00 Q0440.0 QA 0.70 VS 3.60 3
 SPEC ODD1SH Z MO 15.4 ST 38.2 OM  3.8 f0 1.96 R0.6429 AL 3.38 WI 68.4 MW  4.2 3
 SPEC ODD1SH Z T 52228 K 0.000 GD  249 VS 3.60 DE 3.00 Q0440.0 QA 0.70 VS 3.60 3
 SPEC MOL HH Z MO 15.3 ST 61.5 OM  3.7 f0 2.36 R0.5339 AL 3.45 WI 87.0 MW  4.2 3
 SPEC MOL HH Z T 52333 K 0.000 GD  289 VS 3.60 DE 3.00 Q0440.0 QA 0.70 VS 3.60 3
 SPEC FOO HH Z MO 15.6 ST156.6 OM  4.0 f0 2.57 R0.4903 AL 3.74 WI 81.0 MW  4.4 3
 SPEC FOO HH Z T 52332 K 0.000 GD  286 VS 3.60 DE 3.00 Q0440.0 QA 0.70 VS 3.60 3
 SPEC FLOSEH Z MO 15.8 ST 41.8 OM  4.1 f0 1.44 R0.8750 AL 3.42 WI142.8 MW  4.5 3
 SPEC FLOSEH Z T 52423 K 0.000 GD  345 VS 3.60 DE 3.00 Q0440.0 QA 0.70 VS 3.60 3
 SPEC DOMBEH Z MO 15.1 ST 44.3 OM  3.5 f0 2.51 R0.5020 AL 2.87 WI108.3 MW  4.0 3
 SPEC DOMBEH Z T 52255 K 0.000 GD  274 VS 3.60 DE 3.00 Q0440.0 QA 0.70 VS 3.60 3
 SPEC BER HH Z MO 15.2 ST 19.6 OM  3.6 f0 1.79 R0.7039 AL 2.49 WI114.9 MW  4.1 3
 SPEC BER HH Z T 52243 K 0.000 GD  266 VS 3.60 DE 3.00 Q0440.0 QA 0.70 VS 3.60 3
 SPEC ASK EH Z MO 15.1 ST 35.1 OM  3.5 f0 2.34 R0.5385 AL 3.55 WI 93.5 MW  4.0 3
 SPEC ASK EH Z T 52246 K 0.000 GD  268 VS 3.60 DE 3.00 Q0440.0 QA 0.70 VS 3.60 3
 2008-12-16-0520-37S.N_SEA_083                                                 6
 2008-12-16-0520-47S.KMY___003                                                 6
 2008-12-16-0521-02S.HYA___003                                                 6
 2008-12-16-0521-30S.NSS___003                                                 6
 2008-12-16-0521-06S.SUE___006                                                 6
 2008-12-16-0523-20M.KTK___003                                                 6
 2008-12-16-0521-35S.MOR___003                                                 6
 2008-12-16-0459-59M.COP___003                                                 6
 2008-12-16-0500-00M.HOMB__003                                                 6
 2008 1216 0520  4.7 L  55.626  13.603       NAO  7 2.9                 4.7LNAO1
                 1.9     0.2     0.1   -1.0                                    5
     536  SWEDEN                                                               3
 2008 1216 0519 57.4 R  55.500  13.500 10.0  BJI  0 2.3 4.8bMOS 4.8sBJI 4.9LBEO1
 2008 1216 0520 00.4 R  55.560  13.950  0.0  CSE  0 0.0 4.1DBER 4.8lLDG 3.3sIDC1
 2008 1216 0520 00.6 R  55.540  13.795 10.0F LDG  0 1.4 5.0bBJI                1
 2008 1216 0520 00.7 R  55.701  13.890 15.0  DNK  2 0.8                        1
 2008 1216 0520 00.9 R  55.447  13.540  0.0F IDC  0 0.9                        1
 2008 1216 0520 01.1 R  55.490  13.680  0.0  PRU  0 0.0                        1
