 2004 0223 0838 30.8 L  56.111  12.534       NAO  5 0.9                 2.8LNAO1
                 4.1     0.3     0.2   -1.0                                    5
 2004-02-23-0837-59S.HYA___003                                                 6
 2004-02-23-0837-59S.KMY___003                                                 6
 2004-02-23-0837-59S.ODD___003                                                 6
 2004-02-23-0837-59S.RND___001                                                 6
 2004-02-23-0837-59S.SUE___006                                                 6
 2004-02-23-0837-59S.BLS___003                                                 6
 2004-02-23-0837-18S.KONO__003                                                 6
 2004-02-23-0837-59S.STA___003                                                 6
 2004-02-23-0840-19S.WNN___003                                                 6
 2004-02-23-0840-36S.DOM___001                                                 6
 2004-02-23-0839-27S.SNART_003                                                 6
 2004-02-23-0840-53S.MOL___006                                                 6
 2004-02-23-0827-00S.BSD___003                                                 6
 2004-02-23-0828-00S.MUD___003                                                 6
 2004-02-23-0831-00S.COP___003                                                 6
 2004-02-23-0832-51S.GID___003                                                 6
 2004-02-23-0829-04S.GID___001_SH_1Z                                           6
 2004-02-23-0829-04S.GID___001_SH_2N                                           6
 2004-02-23-0829-04S.GID___001_SH_3E                                           6
 2004-02-23-0837-59S.DNK___009                                                 6
 2004-02-23-0838-16S.DK____018                                                 6
 2004-02-23-0837-59S.CLZ___003                                                 6
 2004-02-23-0838-00S.RUE___003                                                 6
 2004-02-23-0837-59S.HLG___003                                                 6
 2004-02-23-0837-59S.RNG___003                                                 6
 2004-02-23-0838-00S.BSEG__003                                                 6
 2004-02-23-0838-16S.DEL_HZ001                                                 6
 2004-02-23-0838-16S.DEL_HN001                                                 6
 2004-02-23-0838-16S.DEL_HE001                                                 6
 2004-02-23-0838-27S.BLE_HZ001                                                 6
 2004-02-23-0838-27S.BLE_HE001                                                 6
 2004-02-23-0838-27S.BLE_HN001                                                 6
 2004-02-23-0838-36S.OSK_HZ001                                                 6
 2004-02-23-0838-36S.OSK_HN001                                                 6
 2004-02-23-0838-36S.OSK_HE001                                                 6
 2004-02-23-0838-42S.BYX_HZ001                                                 6
 2004-02-23-0838-42S.BYX_HN001                                                 6
 2004-02-23-0838-42S.BYX_HE001                                                 6
 2004-02-23-0838-28S.VXJ_HZ001                                                 6
 2004-02-23-0838-28S.VXJ_HN001                                                 6
 2004-02-23-0838-28S.VXJ_HE001                                                 6
 2004-02-23-0838-37S.EKS_HZ001                                                 6
 2004-02-23-0838-37S.EKS_HN001                                                 6
 2004-02-23-0838-37S.EKS_HE001                                                 6
 2004-02-23-0835-59S.CLL___003                                                 6
 2004-02-23-0835-59S.MOX___003                                                 6
 2004-02-23-0835-59S.BRG___003                                                 6
 2004-02-23-0836-00S.FUR___003                                                 6
 ber: Readings from KMS, Denmark included. mbs.                                3
 ber: Locates to 31 km depth. Fixed at 15 km. mbs.                             3
 pv:  felt  www.geus.dk                                                        3
                        F                                                      2
 STAT SP IPHASW D HRMM SECON CODA AMPLIT PERI AZIMU VELO AIN AR TRES W  DIS CAZ7
 COP  HZ IP     C  838 33.70                             135    0.4310 24.4  40 
 COP  HZ ISG       838 37.89                             135   -0.6910 24.4  40 
 COP  HE IS        838 38.66                             135    0.0810 24.4  40 
 COP  HZ  AML      838 38.84       245.7 0.46                          24.4  40 
 GID  SZ IP   9    838 49.49                              98   11.21 0 68.3   6 
 GID  SZ ISG       838 58.24                                   -0.2210 68.3   6 
 GID  SE IS        838 58.59                                    0.1310 68.3   6 
 GID  SZ E         839  1.22       370.5  0.5                          68.3   6 
 RGN  BZ IP   9    838 47.28                              93    1.32 0  130 146 
 RGN  BN ES        839  2.66                                    0.8010  130 146 
 DEL  HZ IPn    C  838 48.68                                            150  44 
 DEL  HZ IPg    C  838 49.36                              92    0.9210  150  44 
 DEL  HZ  s        839  4.83                              92    0.0010  150  44 
 BSD  HZ IP        838 51.92                              92   -0.1710  179 104 
 BSD  HE IS        839 11.12                              92   -0.0210  179 104 
 BSD  HN I         839 20.84                                            179 104 
 BSD  HZ  AML      839 24.02        59.0 0.40                           179 104 
 BSEG BZ EP        838 57.22                              91    0.8610  213 215 
 MUD  HZ IP        838 57.28                              91    0.6310  216 300 
 MUD  HN IS        839 19.51                              91    0.4810  216 300 
 MUD  HZ  AML      839 41.24        31.9 0.61                           216 300 
 VXJS HZ  p     C  838 58.92                              91    0.2010  232  46 
 VXJS HZ  s        839 22.97                              91    0.3610  232  46 
 VXJS HN  SN  4    839 55.00                              56            232  46 
 BLES HZ  p        839  0.10                              81   -0.0410  243  67 
 BLES HN ES        839 24.89                              81   -0.1810  243  67 
 EKSS HZ  p       0839  7.78                              81    0.7710  299  39 
 EKSS HZ  s       0839 37.45                              81    0.5010  299  39 
 OSKS HZ  P        839  8.47                              81    0.6310  306  51 
 RUE  BN ES        839 48.78                              81    0.1110  354 162 
 BYXS HZ  p       0839 14.89                              81    0.7010  357  54 
 VSTS     p       0839 15.07                              81    0.7510  358  46 
 LNKS     p       0839 15.71                              81    0.7810  363  33 
 ASKS     p       0839 21.47                              81    0.8910  409  22 
 CLZ  BZ IP        839 22.78                              81   -0.0410  426 197 
 CLZ  BN ES        840  3.91                              81   -0.4010  426 197 
 VIKS     p       0839 23.95                              81    0.6510  431  38 
 SNARTSZ ES        840  7.17                              81    0.5810  438 318 
 SNARTSZ ES        840  7.17                              81            438 318 
 GOTS     p       0839 27.74                              81    0.8110  460  56 
 CLL  BN ES        840 14.17                              81    0.2210  472 172 
 NRAS     p       0839 30.45                              81    0.7310  483  20 
 ESKS     p       0839 30.67                              81    0.7110  485  30 
 KONO BZ ES        840 17.53                              81    0.6810  486 343 
 KONO BZ ES        840 17.53                              81            486 343 
 HFS  SZ  Pn      0839 34.38                  191.3  8.4  56  1         522   9 
 HFS      Pn  4   0839 34.4        724.2                  56            522   9 
 HFS      p   4   0839 36.9        695.3                  81    2.29 0  522   9 
 HFS      p   4   0839 39.7        450.1                  81    5.09 0  522   9 
 HFS      p   4   0839 42.9        520.8                  81    8.29 0  522   9 
 HFS      p   4   0839 47.9        346.9                  81   13.29 0  522   9 
 HFS      p   4   0839 50.9        449.7                  81   16.29 0  522   9 
 HFS  SZ  Sn      0840 23.08                  197.2  5.2  56  7         522   9 
 HFS      Sn  4   0840 26.3       2869.0                  56            522   9 
 HFS      s   4   0840 31.8       1830.2                  81    7.11 0  522   9 
 HFS      s   4   0840 43.3          1.0                  81   18.61 0  522   9 
 HFS      s   4   0840 46.3       2639.2                  81   21.61 0  522   9 
 HFS      Lg      0840 52.3                                0   -1.2110  522   9 
 HFS      s   4   0840 56.8          1.0                  81   32.11 0  522   9 
 NYNS     p       0839 35.64                              81    0.9410  523  40 
 BRG  BZ IS        840 25.45                              81   -0.8610  530 166 
 MOX  BZ IP        839 36.26                              81   -0.9810  543 184 
 MOX  BE IS        840 29.76                              81    0.5110  543 184 
 BLS5 SZ EP        839 39.17  105                         81    0.5510  554 324 
 BLS5 SZ ES        840 32.92                              81    1.28 9  554 324 
 BLS5 SZ  AML      840 35.24         7.4 0.24                           554 324 
 BACS     p       0839 40.83                              81    0.9610  565  29 
 KMY  SZ EP        839 42.74  132                         81    0.3310  586 317 
 KMY  SZ ES        840 37.94                              81   -0.2510  586 317 
 KMY  SZ  AML      840 40.32         7.9 0.48                           586 317 
 ODD1 SZ EP        839 42.08  147                         81   -1.0910  591 328 
 ODD1 SZ ES        840 38.00                              81   -1.51 9  591 328 
 ODD1 SZ  AML      840 41.48        14.9 0.60                           591 328 
 FLYS     p       0839 46.40                              81    0.3810  615  31 
 EGD  SZ ES        840 55.03                              81   -1.30 9  671 325 
 EGD  SZ  AML      841  1.06         3.7 0.94                           671 325 
 RUND SZ EP        839 53.71                              81   -0.1810  678 326 
 RUND SZ ES        840 57.46                              81   -0.6010  678 326 
 RUND SZ  AML      841  1.41        12.0 0.56                           678 326 
 ASK  SZ ES        841  0.14                              81   -0.2810  690 326 
 SUE  SZ ES        841 12.78                              81   -1.42 9  754 328 
 SUE  SZ  AML      841 16.97         7.4 0.55                           754 328 
 HASS     p       0840  7.49                              81    0.8410  782  17 
 MOL  SZ ES        841 31.57                              81    1.35 9  829 343 
 MEF  BZ EP       0840 18.56                              81   -1.66 9  892  49 
 MEF  BZ  MPN     0840 22.25         0.9 0.21                           892  49 
 MEF  BZ ES       0841 43.10                              81   -0.5010  892  49 
 SOLS     p       0840 22.74                              81    0.5710  908  16 
 PVF  SZ EP       0840 28.47                              81   -2.64 8  980  50 
 PVF  SZ  MPN     0840 31.83         0.7 0.21                           980  50 
 PVF  SZ ES       0842 01.12                              81   -1.33 9  980  50 
 VAF  BZ EP       0840 36.24                              81   -0.6610 1027  31 
 VAF  BZ ES       0842 14.17                              81    1.72 9 1027  31 
 KEF  BZ EP       0840 36.71                              81   -1.64 9 1039  39 
 KEF  BZ  MPN     0840 39.07         0.4 0.20                          1039  39 
 KEF  BZ ES       0842 15.46                              81    0.5010 1039  39 
 FIN      Pn      0840 38.3        208.7                  56           1042  45 
 FIA0 SZ EP       0840 37.45                              81   -1.26 9 1042  45 
 FIA0 SZ  Pn      0840 38.30                  232.7  9.2  56 -3        1042  45 
 FIA0 SZ  MPN     0840 41.57         0.4 0.22                          1042  45 
 FIA0 SZ ES       0842 15.54                              81   -0.0510 1042  45 
 FIA0 SZ  Sn      0842 15.90                  238.9  5.5  56  2        1042  45 
 FIN      p   4   0840 45.7        204.0                  81    6.95 0 1042  45 
 FIN      Sn      0842 18.1        268.9                  56           1042  45 
 FIA0 SZ  Lg  3   0843 06.90                  233.1  5.3   0 -3-13.4 0 1042  45 
 KAF  SZ EP       0840 42.55                              81   -2.66 8 1094  42 
 KAF  SZ  MPN     0840 46.12         0.3 0.19                          1094  42 
 KAF  SZ ES       0842 26.73                              81   -0.1010 1094  42 
 SUF  SZ EP       0840 47.46                              81   -2.02 9 1129  39 
 SUF  SZ  MPN     0840 53.06         0.4 0.19                          1129  39 
 SUF  SZ ES       0842 34.18                              81   -0.0410 1129  39 
 ARC      Pn      0841 55.6         41.8                  56           1698  18 
 ARC      p       0841 59.2         20.5                  81   -0.6310 1698  18 
 ARA0 SZ  P       0841 54.55                  204.1  8.2  81 -5-5.26 1 1698  18 
                                                                                
 2004  416 0811 16.4 LE 57.670  10.609  0.0F DNK 27 1.0 3.6LDNK 2.5CDNK        1
 GAP=166        5.19      12.2    15.3  0.0  0.7135E+02  0.5676E+02  0.9996E+02E
 ACTION:UPD 10-12-20 09:37 OP:pv   STATUS:               ID:20040416081116 L   I
 2004  416 0811 19.5 L  57.732  10.618  0.0  BER  9 1.1 1.7LBER 2.1CBER 2.4LNAO1
 2004 0416 0811 20.0 L  57.854  10.727  4.8  NAO  3 0.4                 2.4LNAO1
                 9.9     0.6     0.4   50.3                                    5
 2004-04-16-0811-28S.KMY___003                                                 6
 2004-04-16-0811-26S.ODD___003                                                 6
 2004-04-16-0811-36S.WNN___003                                                 6
 2004-04-16-0811-26S.BLS___003                                                 6
 2004-04-16-0810-00S.MUD___003                                                 6
 2004-04-16-0811-00S.BSD___003                                                 6
 sok: 16 APR 08:10 5738.0N 01042.0E 19M sand et stk mine type 25               3
     542  DENMARK                                                              3
 STAT SP IPHASW D HRMM SECON CODA AMPLIT PERI AZIMU VELO AIN AR TRES W  DIS CAZ7
 DELU BZ  P       0811 53.40                  310.1       49  5-0.1810  239 123 
 VXJU BZ  P       0811 57.66                  292.2       49  3-0.3310  274 106 
 EKSU BZ  P       0811 59.46                  254.7       49-18 0.6510  281  90 
 ASKU BT  S       0812 34.56                              49    4.35 4  283  59 
 LNKU BZ  P       0812  1.21                  246.1       49-13 0.4510  296  76 
 BLS5 SZ EP        812  3.08  101                         49    0.4810  311 311 
 BLS5 SE ES        812 36.74                              49    0.4010  311 311 
 BLS5 SZ  AML      812 48.92         7.5 0.41                           311 311 
 HFS      Pn  4   0812 04.6                               49    0.00 0  327  32 
 HFS  SZ  Pn      0812 04.78                  222.0  8.4  49  8 0.1810  327  32 
 HFS  SZ  Pg      0812 09.23                  210.0  6.9  90 -3-1.0210  327  32 
 HFS      p   4   0812 10.0                               49    5.40 0  327  32 
 HFS      p   4   0812 13.6                               49    9.00 0  327  32 
 HFS      p   4   0812 16.3                               49   11.70 0  327  32 
 HFS      s   4   0812 20.9                               49   -18.9 0  327  32 
 HFS      p   4   0812 28.6                               49   24.00 0  327  32 
 HFS      Sn      0812 33.3                               49   -6.51 0  327  32 
 HFS      s   4   0812 40.8                               49    0.99 0  327  32 
 HFS      Lg      0812 42.9        1.0   8.12             56   -5.87 0  327  32 
 HFS  SZ  Lg      0812 46.85                  216.5  4.0   0  2         327  32 
 HFS      s   4   0812 47.8                               49    7.99 0  327  32 
 HFS      s   4   0812 48.4                               49    8.59 0  327  32 
 HFS      s   4   0812 52.9                               49   13.09 0  327  32 
 HFS      s   4   0812 55.8                               49   15.99 0  327  32 
 NRAU BZ  P       0812  9.37                  239.4       49  7 4.01 5  333  49 
 OSKU BZ  P       0812  5.58                  321.8       49 40 0.1410  334  97 
 ODD1 SZ EP        812  6.03                              49   -0.1710  340 319 
 ODD1 SN ES        812 41.92                              49   -0.6510  340 319 
 BLEU BZ  P       0812  6.53                              49   -1.0310  351 113 
 KMY  SZ EP        812  8.45   94                         49    0.1410  357 301 
 KMY  SZ ES        812 45.38                              49   -0.8510  357 301 
 VIKU BZ  P       0812 10.75                  245.8       49-11 0.7110  371  73 
 ESKU BZ  P       0812 11.70                  258.8       49 14 0.5610  380  60 
 BSD  HZ IP        812 10.97                              49   -1.38 9  389 135 
 BSD  HE ILG       813  6.75                               0    0.3610  389 135 
 EGD  SZ EP        812 16.64                              49    0.0110  424 315 
 EGD  SZ ES        813  0.28                              49   -0.3410  424 315 
 BER  SZ EP        812 17.50                              49    0.3810  428 317 
 ASK  SZ EP        812 19.07                              49    0.3210  441 318 
 BACU BZ  P       0812 20.13                  209.3       49-30 0.5310  448  54 
 NYNU BZ  P       0812 21.27                  267.2       49 13 0.4210  458  68 
 OSTU BZ  P       0812 22.99                  215.8       49-19 0.4510  471  50 
 NRTU BZ  P       0812 28.57                  250.5       49  3 0.4710  516  61 
 GRAU BZ  P       0812 31.24                  231.9       49 -7-0.2910  543  54 
 FIA0 SZ  Pn      0813 23.15                  251.0  9.5  49  0-1.1710  967  58 
 FIA0 SZ  Sn      0814 58.60                  248.7  5.3  49 -1 0.8810  967  58 
 FIA0 SZ  Lg      0815 49.32                  249.1  4.3  90 -1-0.3410  967  58 
 FIN      Pn      0813 23.2                               49   -1.1710  968  58 
 FIN      Lg      0815 49.3      275.4   2.09              0   -0.4410  968  58 
 ARC      Pn      0814 27.7                               49   -3.77 5 1506  23 
 ARC      p   4   0814 35.0                               46    9.94 0 1506  23 
 ARA0 SZ  P       0814 26.20                  213.0  8.3  46 -2 1.1510 1506  23 
                                                                                
 2004  928 1153 41.2 L  57.828   7.607 15.0  DNK 3611.8 3.4LDNK 2.9CDNK 2.9WDNK1
 SPEC AVERAGE  MO 13.5 ST  3.1 OM  9.9 f0 3.58 R0.3657 AL 1.50 WI 28.0 MW  2.9 3
 GAP=171       31.68      47.3    77.3 60.9  0.1707E+04  0.3214E+03  0.1254E+04E
 ACTION:UPD 10-12-20 09:37 OP:pv   STATUS:               ID:20040928115341 L   I
 2004  928 1153 40.1 L* 57.508   7.187 13.0  BER 19 1.4 2.9LBER 2.7CBER 3.0LNAO1
 2004  928 1153 40.1 L*                      BER        2.9WBER                1
