 2004 0928 1153 40.6 L  57.571   7.518  8.4  NAO  5 2.5                 3.0LNAO1
                 5.1     0.1     0.1   27.0                                    5
 SPEC DOMBS  Z MO 14.0 ST  3.8 OM  2.2 f0 2.49 R0.5060 AL 1.28 WI 25.0 MW  3.3 3
 SPEC DOMBS  Z T115558 K 0.000 GD  480 VS 3.60 DE 3.00 Q0440.0 QA 0.70 VS 3.60 3
 SPEC MOL S  Z MO 13.7 ST  2.1 OM  1.8 f0 2.68 R0.4701 AL 1.76 WI 28.6 MW  3.1 3
 SPEC MOL S  Z T115610 K 0.000 GD  528 VS 3.60 DE 3.00 Q0440.0 QA 0.70 VS 3.60 3
 SPEC HYA S  Z MO 13.5 ST  2.2 OM  1.8 f0 3.07 R0.4104 AL 1.26 WI 35.9 MW  3.0 3
 SPEC HYA S  Z T115528 K 0.000 GD  380 VS 3.60 DE 3.00 Q0440.0 QA 0.70 VS 3.60 3
 SPEC STAVS  Z MO 13.1 ST  3.6 OM  1.7 f0 5.11 R0.2466 AL 1.17 WI 16.2 MW  2.7 3
 SPEC STAVS  Z T115424 K 0.000 GD  166 VS 3.60 DE 3.00 Q0440.0 QA 0.70 VS 3.60 3
 SPEC BLS5S  Z MO 13.3 ST  3.5 OM  1.9 f0 4.15 R0.3036 AL 1.86 WI 22.1 MW  2.8 3
 SPEC BLS5S  Z T115433 K 0.000 GD  190 VS 3.60 DE 3.00 Q0440.0 QA 0.70 VS 3.60 3
 SPEC ODD1S  Z MO 13.5 ST  4.0 OM  2.0 f0 3.72 R0.3387 AL 1.64 WI 24.2 MW  3.0 3
 SPEC ODD1S  Z T115448 K 0.000 GD  239 VS 3.60 DE 3.00 Q0440.0 QA 0.70 VS 3.60 3
 SPEC KMY S  Z MO 13.4 ST  3.0 OM  1.9 f0 3.82 R0.3298 AL 1.22 WI 29.7 MW  2.9 3
 SPEC KMY S  Z T115432 K 0.000 GD  207 VS 3.60 DE 3.00 Q0440.0 QA 0.70 VS 3.60 3
 SPEC ASK S  Z MO 13.3 ST  2.0 OM  1.6 f0 3.65 R0.3452 AL 1.60 WI 38.9 MW  2.8 3
 SPEC ASK S  Z T115459 K 0.000 GD  326 VS 3.60 DE 3.00 Q0440.0 QA 0.70 VS 3.60 3
 SPEC EGD S  Z MO 13.5 ST  2.9 OM  1.8 f0 3.61 R0.3490 AL 1.93 WI 39.6 MW  2.9 3
 SPEC EGD S  Z T115454 K 0.000 GD  305 VS 3.60 DE 3.00 Q0440.0 QA 0.70 VS 3.60 3
 SPEC BER S  Z MO 13.6 ST  3.5 OM  1.9 f0 3.53 R0.3569 AL 1.27 WI 19.5 MW  3.0 3
 SPEC BER S  Z T1155 9 K 0.000 GD  313 VS 3.60 DE 3.00 Q0440.0 QA 0.70 VS 3.60 3
 2004-09-28-1153-24X.OSGS__003                                                 6
 2004-09-28-1153-27X.ARNS__003                                                 6
 2004-09-28-1154-01X.SOTS__003                                                 6
 2004-09-28-1141-00S.COP___003                                                 6
 2004-09-28-1145-38S.BSD___003                                                 6
 2004-09-28-1151-00S.MUD___003                                                 6
 2004-09-28-1149-23S.KONO__003                                                 6
 2004-09-28-1152-59S.BLS___003                                                 6
 2004-09-28-1152-59S.FOO___003                                                 6
 2004-09-28-1152-59S.HYA___003                                                 6
 2004-09-28-1152-59S.KMY___003                                                 6
 2004-09-28-1152-59S.ODD___003                                                 6
 2004-09-28-1152-59S.STA___003                                                 6
 2004-09-28-1152-59S.SUE___006                                                 6
 2004-09-28-1153-44S.WNN___003                                                 6
 2004-09-28-1153-47S.RND___001                                                 6
 2004-09-28-1154-17S.MOL___006                                                 6
 2004-09-28-1154-23S.DOM___001                                                 6
                            3 MM                                        BER    2
 ber: an email from Sør-Audnedal west of Mandal, no quesionnaires sent, alk    3
     534  NORTH SEA                                                            3
 STAT SP IPHASW D HRMM SECON CODA AMPLIT PERI AZIMU VELO AIN AR TRES W  DIS CAZ7
 STAV SZ EP       1154  6.16   93                         66   -1.0410  166 319 
 STAV SZ EPg      1154  7.67                              95   -0.9910  166 319 
 STAV SZ ESg      1154 27.87                              95   -0.8610  166 319 
 MUD  HZ IP       1154  9.48                              66    0.2910  179 147 
 MUD  HN IS       1154 32.15                              66    2.5110  179 147 
 MUD  HZ  AML     1154 34.04        46.6 0.46                           179 147 
 BLS5 SZ EP       1154 12.18  123                         49    1.4610  190 340 
 BLS5 SZ ESg      1154 39.02                              95    3.5710  190 340 
 BLS5 SZ  AML     1154 39.62       331.5 0.26                           190 340 
 KMY  SZ EP       1154 10.98  136                         49   -1.7810  207 319 
 KMY  SZ EPg      1154 11.89                              94   -3.4110  207 319 
 KMY  SZ ES       1154 33.64                              49   -2.1710  207 319 
 KONO BZ EP   9   1155 24.52                              49   68.41 0  233  29 
 KONO BN ESg      1155 59.21                                    2.9910  233  29 
 ODD1 SZ EP       1154 17.19  149                         49    0.3410  239 347 
 ODD1 SN ES       1154 45.12                              49    2.2310  239 347 
 ODD1 SZ ESg      1154 51.29                              94    1.8910  239 347 
 ODD1 SZ  AML     1154 51.80       168.9 0.28                           239 347 
 OSGS SZ EP       1154 23.57   92                         49    0.2910  291 336 
 OSGS SN ES       1154 54.04                              49    0.0310  291 336 
 EGD  SZ EP       1154 24.57  173                         49   -0.3810  305 334 
 EGD  SZ ES       1154 57.96                              49    1.0510  305 334 
 EGD  SZ ESg      1155  8.04                              93   -0.0310  305 334 
 BER  SZ EP       1154 26.33                              49    0.3110  313 336 
 BER  SZ ESg      1155 10.59                              93    0.0810  313 336 
 SOTS SZ EP       1154 26.25  112                         49   -0.0710  315 334 
 SOTS SZ ES       1154 58.83                              49   -0.4410  315 334 
 RUND SZ EP       1154 26.47                              49    0.1210  315 337 
 RUND SZ ES       1155  0.52                              49    1.2010  315 337 
 ASK  SZ EP       1154 27.20  195                         49   -0.4710  326 336 
 ASK  SZ ES       1155  2.60                              49    0.9810  326 336 
 ASK  SZ ESg      1155 13.57                              93   -0.7110  326 336 
 HYA  SZ EP       1154 36.90  166                         49    2.4910  380 348 
 HYA  SZ ESg      1155 31.71                              92    2.0110  380 348 
 HYA  SZ  AML     1155 46.26        36.5 0.40                           380 348 
 NC6  SZ  Pn      1154 38.65                              49    2.7410  392  32 
 NC6  SZ  Sn      1155 23.90                              49    8.0310  392  32 
 NC6  SZ  Lg      1155 40.60                              49    8.6210  392  32 
 SUE  SZ EP       1154 36.06  145                         49   -0.0710  394 337 
 SUE  SZ ES       1155 15.77                              49   -0.4710  394 337 
 SUE  SN ESg      1155 32.96                              92   -0.6610  394 337 
 SUE  SZ  AML     1155 37.68        32.7 0.34                           394 337 
 DELU BT  S       1155 23.35                              49    4.1310  408 109 
 NB2  SZ  Pn      1154 41.15                              49    2.7210  412  28 
 NB2  SZ  Lg      1155 43.90                               0    6.3110  412  28 
 HFS  SZ  Pn      1154 44.17                  233.9  7.9  49 -1 3.0610  434  51 
 HFS  SZ  Sn      1155 31.27                  227.3  4.2  49 -8 6.4110  434  51 
 HFS  SZ  Lg      1155 51.27                  235.4  3.7   0  0 7.4910  434  51 
 ASKU BZ  P       1154 45.59                  260.8       49  3 3.8910  439  71 
 FOO  SZ EP       1154 42.42                              49    0.0910  444 342 
 FOO  SZ EP       1154 42.42                              49            444 342 
 FOO  SZ ESg      1155 46.87                              92   -0.9310  444 342 
 FOO  SZ ESg      1155 46.87                              92            444 342 
 FOO  SZ  AML     1155 54.00        35.1 0.34                           444 342 
 FOO  SZ  AML     1155 54.00        35.1 0.34                           444 342 
 LNKU BZ  P       1154 49.08                  251.4       49-16 3.6910  469  81 
 NRAU BZ  P       1154 49.94                  237.9       49-10 4.0710  472  63 
 DOMB SZ EP       1154 49.84  188                         49    2.9110  480   9 
 DOMB SZ EP       1154 49.84  188                         49            480   9 
 DOMB SZ ESg      1155 59.04                              92    0.8710  480   9 
 DOMB SZ ESg      1155 59.04                              92            480   9 
 DOMB SZ  AML     1156  3.64        92.7 0.20                           480   9 
 DOMB SZ  AML     1156  3.64        92.7 0.20                           480   9 
 MOL  SZ EP       1154 56.21                              49    3.3610  528 360 
 MOL  SZ ESg      1156 14.67                              92    2.8210  528 360 
 MOL  SZ  AML     1156 23.51        38.8 0.64                           528 360 
 ESKU BZ  P       1154 58.04                  262.1       49  5 4.4010  535  69 
 VIKU BZ  P       1154 58.89                  265.7       49  0 4.6010  540  78 
 BSD  HZ IP       1154 54.56                              49    0.0310  542 121 
 BSD  HZ I        1155  0.35                                            542 121 
 BSD  HE IS       1155 49.03                              49    0.9510  542 121 
 BACU BZ  P       1155  4.83                  229.8       46-21 4.2310  593  64 
 OSTU BZ  P       1155  7.06                  240.8       46 -6 4.6010  608  60 
 NYNU BZ  P       1155  8.88                  272.3       46 10 4.9410  621  73 
 FLYU BZ  P       1155 11.19                  265.4       46 14 4.6110  643  62 
 NRTU BZ  P       1155 14.09                  254.7       46 -1 4.4210  670  67 
 GRAU BZ  P       1155 15.92                  241.1       46 -9 4.4210  685  61 
 ARNS SZ EP       1154 27.07  137                         46   -45.810  697  48 
 ARNS SZ ES       1155  0.63                              46   -79.110  697  48 
 FIA0 SZ  Sn      1157 54.95                  253.0  5.3  49 -3 3.9610 1113  61 
 FIA0 SZ  Lg      1159 01.10                  266.2  4.1   0  9 5.6510 1113  61 
 ARA0 SZ  Lg      1201 03.60                  226.5  3.8   0  4 0.4610 1565  26 
                                                                                
 2005  2 3 1549 47.1 LE 56.217  11.214  0.0F DNK 11 1.3 3.1CDNK                1
 GAP=156        2.62       6.3    15.2  0.0  0.5757E+02 -0.3103E+06 -0.5324E+06E
 ACTION:UPD 10-04-27 13:49 OP:pv   STATUS:               ID:20050203154947 L   I
 2005  2 3 1549 52.0 L  56.289  11.363 15.0F BER  8 1.3 1.8LBER 2.7CBER 3.0LNAO1
 2005 0203 1549 48.4 L  56.267  11.152       NAO  5 0.8                 3.0LNAO1
                 3.1     0.2     0.5   -1.0                                    5
 2005-02-03-1540-00S.MUD___003                                                 6
 2005-02-03-1540-55S.BSD___003                                                 6
 2005-02-03-1541-00S.COP___003                                                 6
 2005-02-03-1550-17S.ODD___003                                                 6
 2005-02-03-1550-14S.BLS___003                                                 6
 2005-02-03-1550-06S.KONO__003                                                 6
 2005-02-03-1549-59S.SNART_003                                                 6
 ber: depth fixed to 15 km. continental crust                                  3
 pv: se event 1feb2005                                                         3
 pv: 031547Z FEB/KATTEGAT SYD/5610,040N-01130.170E/20M/SAND/800KG TNT          3
     542  DENMARK                                                              3
 STAT SP IPHASW D HRMM SECON CODA AMPLIT PERI AZIMU VELO AIN AR TRES W  DIS CAZ7
 COP  HZ IP       1550  3.23                              90    0.2110 96.5 127 
 COP  HE ES       1550 15.48                              90    0.8510 96.5 127 
 MUD  HZ IP     C 1550 14.00                              90    5.58 0  129 283 
 MUD  HN IS       1550 34.34                              90   10.37 0  129 283 
 BSD  HZ IP       1550 24.98                              49   -2.38 8  263 116 
 BSD  HN IS       1550 55.99                              49   -0.7610  263 116 
 SNARTSZ EP       1550 37.04                              49    0.2110  339 316 
 KONO BZ EP   9   1551 45.71  201                         49   62.02 0  394 347 
 BLS5 SZ EP       1550 53.18                              49    1.83 9  455 324 
 BLS5 SN ES       1551 38.82                              49    0.5910  455 324 
 HFS  SZ  Pn      1550 52.18                  203.1  8.1  49  4 0.2710  460  17 
 HFS  SZ  Pg      1551 03.19                  194.4  7.4  90 -4 0.2810  460  17 
 HFS  SZ  Sn      1551 40.98                  205.8  3.8  49  6 1.77 9  460  17 
 HFS  SZ  Lg      1551 56.84                  204.4  3.3  49  5-0.2510  460  17 
 ODD1 SZ EP       1550 56.63  107                         49    0.6510  492 329 
 ODD1 SZ ES       1551 42.80                              49   -3.45 6  492 329 
 NC6  SZ  Pn      1550 57.45                              49   -0.0510  505   2 
 NC6  SZ  Lg      1552 10.65                              49    0.9010  505   2 
 NB2  SZ  Pn      1551 01.20                              49   -0.3810  537   0 
 NB2  SZ  Lg      1552 17.77                              49   -1.1310  537   0 
 FIA0 SZ  Pn      1552 00.80                  244.1  9.3  49  2-2.52 8 1034  50 
 ARA0 SZ  Pn      1553 13.15                  207.2  8.0  49 -4-6.20 0 1644  20 
                                                                                
 2005  4 8 1611 32.5 LP 57.163  10.957  0.0F DNK 13 1.4 2.9LDNK 3.0CDNK        1
 GAP= 85        5.04       7.0    14.6  0.0  0.3369E+02  0.4873E+03 -0.6681E+02E
 ACTION:UPD 10-04-27 13:49 OP:pv   STATUS:               ID:20050408161132 L   I
 2005  4 8 1611 35.2 L  57.166  10.862  0.0  BER 10 1.3 3.0CBER 2.2LBER 2.2LNAO1
 2005 0408 1611 34.8 L  57.253  10.954       NAO  3 1.4                 2.2LNAO1
                 2.6     0.2     0.3   -1.0                                    5
 2005-04-08-1606-00S.MUD___003                                                 6
 2005-04-08-1607-07S.BSD___003                                                 6
 2005-04-08-1611-00S.COP___003                                                 6
 2005-04-08-1612-32S.KMY___003                                                 6
 2005-04-08-1612-30S.ODD___003                                                 6
 2005-04-08-1613-08S.WNN___003                                                 6
 2005-04-08-1611-59S.BLS___003                                                 6
 2005-04-08-1610-41S.KONO__003                                                 6
 2005-04-08-1612-04S.SNART_003                                                 6
     542  DENMARK                                                              3
 STAT SP IPHASW D HRMM SECON CODA AMPLIT PERI AZIMU VELO AIN AR TRES W  DIS CAZ7
 MUD  HZ IP       1611 56.02                              90    1.36 9  134 235 
 MUD  HN IS       1612 12.55                              90    1.73 9  134 235 
 COP  HZ IP       1612  4.06                              66    1.1610  188 150 
 COP  HZ IP       1612  4.06                              66            188 150 
 COP  HE IS       1612 22.32                              66   -2.74 8  188 150 
 COP  HE IS       1612 22.32                              66            188 150 
 COP  HZ ISg      1612 26.92                              90    0.7210  188 150 
 COP  HZ ISg      1612 26.92                              91            188 150 
 SNARTSN ES       1612 39.07                              49   -2.35 8  260 302 
 SNARTSZ  AML     1612 48.61        23.8 0.49                           260 302 
 KONO BZ EP       1612 15.95  227                         49    0.0510  288 345 
 KONO BN ES       1612 49.05                              49    1.50 9  288 345 
 BSD  HZ IP       1612 20.17                              49   -1.63 9  336 131 
 BSD  HZ IP       1612 20.17                              49            336 131 
 BSD  HZ I        1612 26.93                                            336 131 
 BSD  HZ I        1612 26.93                                            336 131 
 BSD  HN IS       1612 53.74                              49   -4.03 5  336 131 
 BSD  HN IS       1612 53.74                              49            336 131 
 BSD  HZ ISg      1613  7.65                              90   -0.5310  336 131 
 BSD  HZ ISg      1613  7.65                              90            336 131 
 BLS5 SZ EP       1612 25.48  110                         49    0.0210  365 316 
 BLS5 SN ESg      1613 16.07                              90   -0.3710  365 316 
 BLS5 SZ  AML     1613 20.77        16.8 0.47                           365 316 
 HFS  SZ  Pn      1612 27.54                  213.5  9.1  49  7 1.79 9  367  25 
 HFS  SZ  Pg      1612 32.52                  201.2  8.2  90 -5-0.4910  367  25 
 HFS  SZ  Sn      1613 05.83                  209.1  5.9  49  2 1.24 9  367  25 
 HFS  SZ  Lg      1613 15.04                  211.4  3.9  49  5-1.1910  367  25 
 ODD1 SZ ESg      1613 25.48                              90   -0.0410  396 322 
 ODD1 SZ  AML     1613 27.13        19.1 0.32                           396 322 
 KMY  SZ ESg      1613 26.87                              90   -1.34 9  406 307 
 NB2  SZ  Pn      1612 33.82                  220.8  6.1  49 39-0.0710  432   2 
 NB2  SZ  Sn      1613 20.57                              49    1.89 9  432   2 
 NB2  SZ  Lg      1613 35.20                  176.6  3.8   0 -4 0.6110  432   2 
 EGD  SZ ESg      1613 48.63                              90   -0.5410  479 319 
 ASK  SZ ESg      1613 53.50                              90   -0.7410  497 320 
 FIA0 SZ  Pn      1613 44.00                  233.6  9.0  49-13 1.78 9  981  55 
 FIA0 SZ  Lg      1616 08.42                  253.2  5.2  49  6-1.35 9  981  55 
                                                                                
 2008 1216 0520  2.9 R  55.683  13.444  9.0F DNK 78 3.4 4.9LDNK 4.4CDNK 4.3WDNK1
 SPEC AVERAGE  MO 15.5 ST 63.7 OM  3.9 f0 2.11 R0.6433 AL 3.28 WI103.9 MW  4.3 3
 GAP= 87        9.61       7.4    15.9  0.0  0.4238E+02  0.0000E+00  0.0000E+00E
 ACTION:UPD 10-04-27 13:49 OP:pv   STATUS:               ID:20081216052002 L   I
 2008-12-16-0518-00S.DNK___015                                                 6
 2008-12-16-0500-00S.DNK___009                                                 3
 2008-12-16-0500-00M.GE____006                                                 3
 2008-12-16-0516-55-000900-1-GID__-SH_Z                                        3
 2008-12-16-0516-55-000900-1-GID__-SH_N                                        3
 2008-12-16-0516-55-000900-1-GID__-SH_E                                        3
 2008-12-16-0500-00M.DK_COP__HHZ                                               3
 2008-12-16-0500-02M.DK_COP__HHN                                               3
 2008-12-16-0500-02M.DK_COP__HHE                                               3
 2008-12-16-0500-02M.DK_BSD__HHZ                                               6
 2008-12-16-0500-02M.DK_BSD__HHN                                               6
 2008-12-16-0500-00M.DK_BSD__HHE                                               6
 2008-12-16-0500-00M.GE_RGN__BHZ                                               6
 2008-12-16-0500-00M.GE_RGN__BHN                                               6
 2008-12-16-0500-07M.GE_RGN__BHE                                               6
 pv: LOT ROSA Paper                                                            3
 2008 1216 0520  3.2 R  55.568  13.599  9.0F DA  20 1.1 4.2WLOT                1
 2008 1216 0520  3.2 R  55.568  13.599 15.0F DA  20 1.1 4.9LDA                 1
