 2008 1216 0520 01.5 R  55.514  13.410 10.0F NEI  0 1.0                        1
 ACTION:DUP 10-03-31 12:58 OP:pv   STATUS:               ID:20081216052003d    3
 IDC: ellipse    3.6    2.4 126 MB sd+-   0.0            Event ID 13402913     3
 STAT SP IPHASW D HRMM SECON CODA AMPLIT PERI AZIMU VELO AIN AR TRES W  DIS CAZ7
 FLOS EZ EPn       522 36.31                              50                    
 ARE0 BZ EPn       523 29.50                              50                    
 STEI EZ EPn       522 58.19                              50                    
 NC602BZ EP        521 20.78                              49                    
 NC602BE ESg       522 44.97                              91                    
 FLOS EZ ESn       524 27.27                              50                    
 FLOS EZ  AML      525 54.95      1023.9 0.57                                   
 LUNU BZ  P     C 0520  5.46                             148    0.8010 5.68 179 
 LUNU BT  S       0520  7.48                             148    1.5310 5.68 179 
 BJUU BZ  P     D 0520 13.68                             100    2.2710 50.9 329 
 BJUU BT  S       0520 21.51                             100    3.8810 50.9 329 
 COP  HZ IP     C  520 16.26                              98    2.7910 63.6 270 
 COP  HN IS        520 25.19                              98    4.0010 63.6 270 
 COP  HZ  AML      520 26.96     20121.6 0.30                          63.6 270 
 GID  SZ IP     D  520 21.72                              96    4.4010 87.1 305 
 GID  SN IS        520 32.86                              96    5.0010 87.1 305 
 GID  SZ  AML      520 43.05     25648.2 0.72                          87.1 305 
 DELU BZ  P     D 0520 20.23                              96    2.1810 91.5  17 
 BSD  HZ EP        520 19.15                              66   -2.1210  113 124 
 BSD  HZ IPg       520 20.16                              95   -1.3510  113 124 
 BSD  HN IS        520 31.07                              66   -3.6110  113 124 
 BSD  HZ  AML      520 33.51     35569.1 0.26                           113 124 
 RGN  BH EP        520 22.34                              66   -1.0210  127 184 
 RGN  BH ES        520 36.85                              66   -1.4510  127 184 
 FABU BZ  P       0520 29.81                              66    2.4010  153 343 
 VXJU BZ  P     C 0520 29.98                              66    0.6710  166  33 
 VXJU BT  S       0520 51.32                              66    2.7210  166  33 
 GNOU BZ  P       0520 32.67                              66    1.2510  180   6 
 GNOU BT  S       0520 56.77                              66    4.5310  180   6 
 BORU BZ  P     D 0520 37.57                              49    0.6110  221 350 
 OSKU BZ  P     D 0520 38.46                              49   -0.1910  235  43 
 EKSU BZ  P       0520 39.64                              49    0.4210  239  28 
 MUD  HZ IP        520 44.23                              49   -0.0110  280 290 
 MUD  HZ  AML      521 38.32      3740.5 0.40                           280 290 
 MUD  HZ  AMS      522 11.61      2447.1 9.36                           280 290 
 BYXU BZ  P     C 0520 44.32                              49   -0.3410  283  49 
 TJOU BZ  P     D 0520 46.03                              49    1.2510  284 338 
 RUE  BH EP        520 50.90                              49   -3.02 0  358 176 
 RUE  BH ES        521 25.96                              49   -5.2210  358 176 
 GKP   Z EPn      0520 52.3                               49   -2.4410  364 1364
 GKP   Z EPg      0521  3.4                               91    0.5210  364 1364
 GKP   N ESn      0521 31.1                               49   -1.4810  364 1364
 GKP   N ESg      0521 42.0                               91   -4.6810  364 1364
 GKP   N out      0521 42.0          3.0  0.4                           364 1364
 HOMB HZ EP        521  0.66                              49   -0.5410  416 316 
 HOMB HN ES        521 43.75                              49   -0.0210  416 316 
 FINU BZ  P     C 0521  1.02                              49   -0.4710  418 352 
 SNARTEZ IP        521  8.52                              49   -0.8410  481 311 
 SNARTEE ES   4    521 56.63                              49   -1.25 0  481 311 
 SNARTEZ  AML      522 32.32      1227.9 0.46                           481 311 
 UDDU BZ  P     D 0521  9.72                              49   -0.8410  491   1 
 HFS  SZ EP        521 11.50                              49    0.3110  496   2 
 HFS  SZ ES        522  2.97                              49    1.9210  496   2 
 KONO BH EP        521 10.75                              49   -0.6410  498 334 
 KONO BH ES        522  2.64                              49    1.2510  498 334 
 OSL  SZ EP        521 11.40                              49   -0.3410  501 342 
 OSL  SZ ESg       522 24.28                              91   -1.3210  501 342 
 BACU BZ  P       0521 13.46                              49    0.1710  513  24 
 UP1U BZ  P       0521 15.32                              49    0.2710  527  26 
 KSP   Z EPn      0521 16.6                               49   -3.9410  571 1594
 KSP   Z EPg      0521 43.1                               91    6.1210  571 1594
 KSP   N ESn      0522 11.3                               49   -5.9210  571 1594
 KSP   N  Sg      0522 54.7         400.  0.8                           571 1594
 KSP   N ESg      0522 54.7                               91    9.0410  571 1594
 SLIT BH EP        521 19.71                              46   -2.2510  584  65 
 SLIT BH ES        522 18.69                              46   -0.9910  584  65 
 NB2  SZ  Pg      0521 41.62                              91   -1.9010  611 349 
 NOA  SZ ES        522 23.21                              46   -2.1110  611 349 
 NB2  SZ  Pn      0521 25.10                  167.7  8.7  49  1-0.4310  611 349 
 NOA  SZ EP        521 22.46                              46   -2.7610  611 349 
 NB2  SZ  Lg      0522 57.10                  164.7  3.8   0 -1 1.6810  611 349 
 ODD1 SZ EP        521 25.10                              46   -1.3010  621 322 
 ODD1 SZ ES   4    522 30.50                              46    3.14 0  621 322 
 ODD1 SZ  AML      523  2.31      1256.6 0.41                           621 322 
 KMY  SZ EP        521 26.80  399                         46   -0.5110  629 312 
 KMY  SZ ES        522 27.66                              46   -1.2710  629 312 
 KMY  SZ  AML      523 16.72       395.2 0.54                           629 312 
 AAL  BZ EP        521 27.26                              46   -0.4810  633  35 
 AAL  BZ ES        522 30.85                              46    1.1710  633  35 
 BEL   Z EPn      0521 26.7                               49   -3.1510  646 1284
 BEL   Z EPg      0521 57.0                               91    7.6910  646 1284
 BEL   N ESn      0522 30.5                               49   -2.8310  646 1284
 BEL   E out      0523 17.1          3.5  0.8                           646 1284
 BEL   E ESg      0523 17.1                               91   10.1010  646 1284
 SUW   Z EPn      0521 27.4                               49   -3.1910  652 1034
 SUW   Z EPg      0521 46.7                               91   -3.5910  652 1034
 SUW   N ESg      0523  5.9                               91   -2.8010  652 1034
 SUW   N out      0523  5.9          4.1  0.5                           652 1034
 BER  HZ EP        521 36.22                              46   -0.4610  709 321 
 BER  HZ ES   4    522 49.10                              46    3.95 0  709 321 
 BER  HZ  AML      523 30.71       840.0 0.41                           709 321 
 RUND EZ EP        521 36.46                              46   -0.3910  710 321 
 RUND EZ ES        522 45.87                              46    0.4310  710 321 
 RUND EZ  AML      523 35.24       610.5 0.48                           710 321 
 MTSE HH EP        521 35.86                              46   -1.0710  711  57 
 MTSE HH ES        522 44.63                              46   -0.9510  711  57 
 ASK  EZ EP        521 37.60                              46   -0.6310  722 321 
 ASK  EZ ES        522 47.40                              46   -0.4310  722 321 
 ASK  EZ ESg       523 27.74                              91   -0.9510  722 321 
 ASK  EZ  AML      523 41.66       614.1 0.94                           722 321 
 HYA  SZ EP        521 41.64                              46    0.9810  743 328 
 HYA  SN ESg       523 31.22                              91   -3.3610  743 328 
 HYA  SZ  AML      523 42.17       889.1 0.50                           743 328 
 DOMB EZ EP        521 42.67                              46    0.5910  754 342 
 RAF  BZ EP        521 43.37                              46   -0.2410  768  36 
 RAF  BZ ES        522 58.17                              46    1.0410  768  36 
 RAF  BZ  MSG      523 40.28      1514.0  0.4                           768  36 
 SUE  SZ EP        521 46.34                              46    0.8210  784 323 
 SUE  SZ ESg  4    523 43.41                              91   -2.95 0  784 323 
 SUE  SZ  AML      524  2.07       395.3 0.63                           784 323 
 FOO  HZ EP        521 48.78                              46   -0.8110  819 327 
 MEF  BZ EP        521 49.91                              46    0.1110  820  48 
 MEF  BZ ES        523  8.92                              46    1.0810  820  48 
 MEF  BZ  MSG      523 56.75      1958.9  0.5                           820  48 
 MOL  HZ EPn       521 52.02                              49   -1.6910  838 339 
 MOL  HE ESg  4    523 56.84                              91   -4.78 0  838 339 
 MOL  HZ  AML      524  9.00       578.8 0.55                           838 339 
 VSU  HH EP        521 54.28                              46   -0.4010  862  64 
 VSU  HH ES        523 15.67                              46   -0.6110  862  64 
 PVF  SZ EP        522  0.01                              46   -0.1310  908  48 
 PVF  SZ ES        523 26.19                              46    0.4610  908  48 
 PVF  SZ  MSG      524 18.78      1163.9  0.4                           908  48 
 KWP   Z EPn      0522  0.2                               49   -3.6010  918 1334
 KWP   Z EPg      0522 40.9                               91    6.7110  918 1334
 KWP   E ESn      0523 30.4                               49   -1.6710  918 1334
 KWP   E out      0524 29.4          0.4  0.7                           918 1334
 KWP   E ESg      0524 29.4                               91    4.7610  918 1334
 VAF  BZ EP        522  9.27                              46    1.6910  972  29 
 VAF  BZ ES        523 43.55                              46    4.9510  972  29 
 VAF  BZ  MSG      524 42.64       866.3  0.5                           972  29 
 FIA0 SZ EP        522  8.75                              46    0.9810  973  44 
 FIA0 SZ ES        523 42.31                              46    3.3810  973  44 
 FIA0 SZ  MSG      524 35.76      1229.8  0.5                           973  44 
 KEF  BZ EP        522  8.41                              46    0.4510  975  38 
 KEF  BZ ES        523 42.35                              46    3.0810  975  38 
 KEF  BZ  MSG      524 41.69      1382.7  0.5                           975  38 
 VJF  BZ EP        522  8.55                              46   -1.1210  989  51 
 VJF  BZ ES        523 42.99                              46    0.7710  989  51 
 VJF  BZ  MSG      524 43.15      1057.8  0.5                           989  51 
 NSS  BN ESg       524 42.75                              91   -2.1210  989 356 
 NSS  BZ  AML      524 56.22       674.3 0.56                           989 356 
 KAF  BZ EP        522 14.26                              46    0.0510 1028  41 
 KAF  BZ ES        523 52.51                              46    2.4410 1028  41 
 KAF  BZ  MSG      524 54.28      1129.5  0.5                          1028  41 
 SUF  BZ EP        522 18.61                              46    0.0210 1065  37 
 SUF  BZ ES        524  0.63                              46    2.9710 1065  37 
 SUF  BZ  MSG      525  7.57       837.7  0.5                          1065  37 
 MOR8 SZ EPn       522 35.44                              49   -1.42 9 1184   3 
 MOR8 SE  Sn       524 29.97                              49    0.72 9 1184   3 
 MOR8 SZ  AML 4    525 48.90       631.2 0.48                          1184   3 
 STOK EZ EPn       522 36.17                              49   -1.08 9 1187 359 
 STOK EN ESn       524 26.37                              49   -3.56 9 1187 359 
 STOK EZ  AML      525 51.86       569.3 0.87                          1187 359 
 OUL  BZ EP        522 40.50                              46    0.38 9 1248  28 
 OUL  BZ ES        524 40.56                              46    5.67 9 1248  28 
 JOF  BZ EP        522 46.14                              46    0.92 9 1291  44 
 JOF  BZ ES        524 49.94                              46    6.22 9 1291  44 
 JOF  BZ  MSG      526  9.58       503.9  0.5                          1291  44 
 RNF  BZ EP        522 56.48                              46   -0.06 8 1388  24 
 RNF  BZ ES        525  9.93                              46    6.63 8 1388  24 
 LOF  SZ EPn       522 57.78                              49   -4.45 8 1388   0 
 LOF  SZ ESn       525  6.65                              49   -6.51 8 1388   0 
 LOF  SZ  AML      526 44.01       147.9 0.81             47           1388   0 
 MSF  BZ EP        523  0.62                              46    1.02 8 1413  30 
 MSF  BZ ES        525 15.06                              46    6.46 8 1413  30 
 LANU BZ EP        523  5.17                              46    1.61 8 1447  14 
 LANU BZ ES        525 24.30                              46    8.85 8 1447  14 
 KU6  BZ EP        523  4.82                              46    0.97 8 1450  31 
 KU6  BZ ES        525 22.29                              46    6.34 8 1450  31 
 KU6  BZ  MSG      526 57.51       466.8  0.5                          1450  31 
 HEF  BZ EP        523 12.35                              45   -3.7310 1511  16 
 HEF  BZ ES   4    525 37.79                              47   -10.8 0 1511  16 
 HEF  BZ  MSG      527 13.18       777.9  0.9                          1511  16 
 KIF  BZ EP        523 15.33                              45   -3.1010 1531  11 
 KIF  BZ ES   4    525 41.57                              47   -11.2 0 1531  11 
 KIF  BZ  MSG      527 20.44       465.0  0.6                          1531  11 
 KTK1 HZ EPn       523 19.69                              45   -3.0710 1566  15 
 TRO  BZ EPn       523 21.82                              45   -2.5410 1579   8 
 TRO  BZ  AML      527 32.98       227.2 0.78                          1579   8 
 VRF  BZ EP        523 19.04                              45   -5.8510 1583  26 
 VRF  BZ ES   4    525 50.36                              47   -13.9 0 1583  26 
 VRF  BZ  MSG      527 31.66       303.5  0.5                          1583  26 
 ARA0 SZ  Pn      0523 29.00                  202.5  9.2  45 -4-4.9510 1657  17 
 ARA0 SZ  Sn      0526 06.04                  199.3  5.8  47 -7-14.410 1657  17 
 ARA0 SZ  Lg      0527 44.22                  180.0  4.1   0-26-6.7110 1657  17 
 KEV  BZ EP        523 34.83                              43   -5.0510 1706  18 
 KEV  BZ ES   4    526 17.80                              47   -13.5 0 1706  18 
 KEV  BZ  MSG      528  9.34       364.1  0.8                          1706  18 
 SPA0 BZ  P        525  4.11                  143.3 10.3  34-40 0.6510 2513   2 
 BSEG     P   4   0520 42.80                                            262 230 
 BSEG     Pn  4   0520 42.83                                            262 230 
 PHL      Pn  4   0520 53.20                                            359 103 
 PHL      Pg  4   0520 59.10                                            359 103 
 PHL      Sn  4   0521 41.90                                            359 103 
 PHL      Sg  4   0521 49.80                                            359 103 
 HLG      P   4   0520 57.22                                            381 250 
 HLG      Pn  4   0520 57.53                                            381 250 
 ASSE     Pn  4   0521 01.66                                            413 206 
 CLZ      P   4   0521 05.90                                            450 207 
 CLZ          4   0521 52.50                                            450 207 
 CLZ      Pn  4   0521 05.92                                            450 207 
 CLZ      Sn  4   0521 52.52                                            450 207 
 CLL      P   4   0521 05.80                                            464 183 
 CLL      pmax4   0000 00.00     56.      0.8                           464 183 
 CLL      Pn  4   0521 05.95                                            464 183 
 CLL      Sn  4   0521 53.92                                            464 183 
 CLL      Pn  4   0521 05.80     56.      0.8                    2.6    464 183 
 CLL          4   0521 00.01                                            464 183 
 CLL      Pg  4   0521 00.02                                            464 183 
 CLL      Sn  4   0521 00.05                                            464 183 
 CLL      Sg  4   0522 00.03     .75E+03  0.9                           464 183 
 IBBN     P   4   0521 14.90                                            511 228 
 IBBN     Pn  4   0521 13.54                                            511 228 
 BRG      P   4   0521 11.30                                            513 175 
 BRG      PN  4 C 0521 11.80     .12E+03  0.6                           513 175 
 BRG      PG  4   0521 31.60                                            513 175 
 BRG      SN  4   0522 04.20                                            513 175 
 BRG          4   0522 35.80     .31E+03  0.6                           513 175 
 BRG          4   0000 00.00     .63E+03  9.1                           513 175 
 BRG          4   0000 00.00     .42E+03  9.1                           513 175 
 BRG          4   0000 00.00     .91E+03 10.7                           513 175 
 BRG      P   4 C 0521 11.80                                            513 175 
 BRG          4   0522 04.20                                            513 175 
 BRG      MLR 4   0000 00.00     .91E+03 10.7                           513 175 
 BRG      pmax4   0000 00.00     .12E+03  0.6                           513 175 
 BRG      pmax4   0000 00.00     .31E+03  0.6                           513 175 
 BRG      smax4   0000 00.00     3.0      0.5                           513 175 
 BRG      MLR 4   0000 00.00     .42E+03  9.1                           513 175 
 BRG      MLR 4   0000 00.00     .63E+03  9.1                           513 175 
 BRG      Pn  4   0521 11.63                                            513 175 
 BRG      Sn  4   0522 03.98                                            513 175 
 KONO     AML 4   0522 26.74     0.2E+04  0.4                           517 335 
 HFS      Pn  4   0521 11.59                  171.9 13.9                518   1 
 HFS      Pg  4   0521 24.24                  180.0 18.5                518   1 
 HFS      Sn  4   0522 03.34                  175.6 27.8                518   1 
 HFS      Lg  4   0522 24.64                  172.9 37.1                518   1 
 HFS      Pn  4   0521 11.39     12.      0.3 181.0 13.5593.            518   1 
 HFS      Pg  4   0521 24.27     .14E+03  0.3 175.2 18.855.9            518   1 
 HFS      Sn  4   0522 04.29     56.      0.3 192.3 24.311.4            518   1 
 HFS      Lg  4   0522 24.39     .40E+03  0.3 174.0 29.713.1            518   1 
 HFS      Pn  4   0521 11.39                                            518   1 
 HFS      Pg  4   0521 24.27                                            518   1 
