 2005  4 8 1611 56.0SLP 57.126  10.917  20.F TES 13 0.7 2.2LTES 3.0CTES        1
 GAP= 87        4.58       6.0    12.5  0.0  0.2561E+02  0.2437E+02  0.5430E+02E
 ACTION:UPD 11-03-11 11:27 OP:ke   STATUS:               ID:20050408161132 L   I
 2005  4 8 1611 35.2 L  57.166  10.862  0.0  BER 10 1.3 3.0CBER 2.2LBER 2.2LNAO1
 2005 0408 1611 34.8 L  57.253  10.954       NAO  3 1.4                 2.2LNAO1
                 2.6     0.2     0.3   -1.0                                    5
 2005-04-08-1606-00S.MUD___003                                                 6
 2005-04-08-1607-07S.BSD___003                                                 6
 2005-04-08-1611-00S.COP___003                                                 6
 2005-04-08-1612-32S.KMY___003                                                 6
 2005-04-08-1612-30S.ODD___003                                                 6
 2005-04-08-1613-08S.WNN___003                                                 6
 2005-04-08-1611-59S.BLS___003                                                 6
 2005-04-08-1610-41S.KONO__003                                                 6
 2005-04-08-1612-04S.SNART_003                                                 6
     542  DENMARK                                                              3
 STAT SP IPHASW D HRMM SECON CODA AMPLIT PERI AZIMU VELO AIN AR TRES W  DIS CAZ7
 MUD  HZ IP       1611 56.02                              90    0.7810  130 236 
 MUD  HN IS       1612 12.55                              90    1.7810  130 236 
 COP  HZ IP       1612  4.06                              50    1.3010  186 149 
 COP  HZ IP       1612  4.06                              66            186 149 
 COP  HE IS       1612 22.32                              50   -1.5410  186 149 
 COP  HE IS       1612 22.32                              66            186 149 
 COP  HZ ISg      1612 26.92                              90    0.5610  186 149 
 COP  HZ ISg      1612 26.92                              91            186 149 
 SNARTSN ES       1612 39.07                              50   -0.6210  259 303 
 SNARTSZ  AML     1612 48.61        23.8 0.49                           259 303 
 KONO BZ EP       1612 15.95  227                         50    0.0310  291 345 
 KONO BN ES       1612 49.05                              50    2.3010  291 345 
 BSD  HZ IP       1612 20.17                              50   -1.0910  335 130 
 BSD  HZ IP       1612 20.17                              49            335 130 
 BSD  HZ I        1612 26.93                                            335 130 
 BSD  HZ I        1612 26.93                                            335 130 
 BSD  HN IS       1612 53.74                              50   -2.3110  335 130 
 BSD  HN IS       1612 53.74                              49            335 130 
 BSD  HZ ISg      1613  7.65                              90   -0.5010  335 130 
 BSD  HZ ISg      1613  7.65                              90            335 130 
 BLS5 SZ EP   4   1612 25.48  110                         50    0.2810  366 316 
 BLS5 SN ESg  4   1613 16.07                              90   -0.8710  366 316 
 BLS5 SZ  AML 4   1613 20.77        16.8 0.47                           366 316 
 HFS  SZ  Pn      1612 27.54                  213.5  9.1  50  7 1.6310  372  25 
 HFS  SZ  Pg      1612 32.52                  201.2  8.2  90 -5-1.7010  372  25 
 HFS  SZ  Sn      1613 05.83                  209.1  5.9  50  2 1.7010  372  25 
 HFS  SZ  Lg      1613 15.04                  211.4  3.9  91  4-2.4910  372  25 
 ODD1 SZ ESg  4   1613 25.48                              90   -0.5610  398 323 
 ODD1 SZ  AML 4   1613 27.13        19.1 0.32                           398 323 
 KMY  SZ ESg  4   1613 26.87                              90   -1.4510  406 307 
 NB2  SZ  Pn  4   1612 33.82                  220.8  6.1  50 38-0.1510  436   2 
 NB2  SZ  Sn  4   1613 20.57                              50    2.4110  436   2 
 NB2  SZ  Lg  4   1613 35.20                  176.6  3.8  53 -5-0.2610  436   2 
 EGD  SZ ESg  4   1613 48.63                              90   -0.6110  481 319 
 ASK  SZ ESg  4   1613 53.50                              90   -0.7710  499 321 
 FIA0 SZ  Pn  4   1613 44.00                  233.6  9.0  50-13 1.8310  986  55 
 FIA0 SZ  Lg  4   1616 08.42                  253.2  5.2  91  6 0.3410  986  55 
                                                                                
 2005  4 8 1611 56.0SLP 57.126  10.917  21.F TES 13 0.7 2.2LTES 3.0CTES        1
 GAP= 87        4.58       6.0    12.5  0.0  0.2561E+02  0.2437E+02  0.5430E+02E
 ACTION:UPD 11-03-11 11:27 OP:ke   STATUS:               ID:20050408161132 L   I
 2005  4 8 1611 35.2 L  57.166  10.862  0.0  BER 10 1.3 3.0CBER 2.2LBER 2.2LNAO1
 2005 0408 1611 34.8 L  57.253  10.954       NAO  3 1.4                 2.2LNAO1
                 2.6     0.2     0.3   -1.0                                    5
 2005-04-08-1606-00S.MUD___003                                                 6
 2005-04-08-1607-07S.BSD___003                                                 6
 2005-04-08-1611-00S.COP___003                                                 6
 2005-04-08-1612-32S.KMY___003                                                 6
 2005-04-08-1612-30S.ODD___003                                                 6
 2005-04-08-1613-08S.WNN___003                                                 6
 2005-04-08-1611-59S.BLS___003                                                 6
 2005-04-08-1610-41S.KONO__003                                                 6
 2005-04-08-1612-04S.SNART_003                                                 6
     542  DENMARK                                                              3
 STAT SP IPHASW D HRMM SECON CODA AMPLIT PERI AZIMU VELO AIN AR TRES W  DIS CAZ7
 MUD  HZ IP       1611 56.02                              90    0.7810  130 236 
 MUD  HN IS       1612 12.55                              90    1.7810  130 236 
 COP  HZ IP       1612  4.06                              50    1.3010  186 149 
 COP  HZ IP       1612  4.06                              66            186 149 
 COP  HE IS       1612 22.32                              50   -1.5410  186 149 
 COP  HE IS       1612 22.32                              66            186 149 
 COP  HZ ISg      1612 26.92                              90    0.5610  186 149 
 COP  HZ ISg      1612 26.92                              91            186 149 
 SNARTSN ES       1612 39.07                              50   -0.6210  259 303 
 SNARTSZ  AML     1612 48.61        23.8 0.49                           259 303 
 KONO BZ EP       1612 15.95  227                         50    0.0310  291 345 
 KONO BN ES       1612 49.05                              50    2.3010  291 345 
 BSD  HZ IP       1612 20.17                              50   -1.0910  335 130 
 BSD  HZ IP       1612 20.17                              49            335 130 
 BSD  HZ I        1612 26.93                                            335 130 
 BSD  HZ I        1612 26.93                                            335 130 
 BSD  HN IS       1612 53.74                              50   -2.3110  335 130 
 BSD  HN IS       1612 53.74                              49            335 130 
 BSD  HZ ISg      1613  7.65                              90   -0.5010  335 130 
 BSD  HZ ISg      1613  7.65                              90            335 130 
 BLS5 SZ EP   4   1612 25.48  110                         50    0.2810  366 316 
 BLS5 SN ESg  4   1613 16.07                              90   -0.8710  366 316 
 BLS5 SZ  AML 4   1613 20.77        16.8 0.47                           366 316 
 HFS  SZ  Pn      1612 27.54                  213.5  9.1  50  7 1.6310  372  25 
 HFS  SZ  Pg      1612 32.52                  201.2  8.2  90 -5-1.7010  372  25 
 HFS  SZ  Sn      1613 05.83                  209.1  5.9  50  2 1.7010  372  25 
 HFS  SZ  Lg      1613 15.04                  211.4  3.9  91  4-2.4910  372  25 
 ODD1 SZ ESg  4   1613 25.48                              90   -0.5610  398 323 
 ODD1 SZ  AML 4   1613 27.13        19.1 0.32                           398 323 
 KMY  SZ ESg  4   1613 26.87                              90   -1.4510  406 307 
 NB2  SZ  Pn  4   1612 33.82                  220.8  6.1  50 38-0.1510  436   2 
 NB2  SZ  Sn  4   1613 20.57                              50    2.4110  436   2 
 NB2  SZ  Lg  4   1613 35.20                  176.6  3.8  53 -5-0.2610  436   2 
 EGD  SZ ESg  4   1613 48.63                              90   -0.6110  481 319 
 ASK  SZ ESg  4   1613 53.50                              90   -0.7710  499 321 
 FIA0 SZ  Pn  4   1613 44.00                  233.6  9.0  50-13 1.8310  986  55 
 FIA0 SZ  Lg  4   1616 08.42                  253.2  5.2  91  6 0.3410  986  55 
                                                                                
 2005  4 8 1611 56.0SLP 57.126  10.917  22.F TES 13 0.7 2.2LTES 3.0CTES        1
 GAP= 87        4.58       6.0    12.5  0.0  0.2561E+02  0.2437E+02  0.5430E+02E
 ACTION:UPD 11-03-11 11:27 OP:ke   STATUS:               ID:20050408161132 L   I
 2005  4 8 1611 35.2 L  57.166  10.862  0.0  BER 10 1.3 3.0CBER 2.2LBER 2.2LNAO1
 2005 0408 1611 34.8 L  57.253  10.954       NAO  3 1.4                 2.2LNAO1
                 2.6     0.2     0.3   -1.0                                    5
 2005-04-08-1606-00S.MUD___003                                                 6
 2005-04-08-1607-07S.BSD___003                                                 6
 2005-04-08-1611-00S.COP___003                                                 6
 2005-04-08-1612-32S.KMY___003                                                 6
 2005-04-08-1612-30S.ODD___003                                                 6
 2005-04-08-1613-08S.WNN___003                                                 6
 2005-04-08-1611-59S.BLS___003                                                 6
 2005-04-08-1610-41S.KONO__003                                                 6
 2005-04-08-1612-04S.SNART_003                                                 6
     542  DENMARK                                                              3
 STAT SP IPHASW D HRMM SECON CODA AMPLIT PERI AZIMU VELO AIN AR TRES W  DIS CAZ7
 MUD  HZ IP       1611 56.02                              90    0.7810  130 236 
 MUD  HN IS       1612 12.55                              90    1.7810  130 236 
 COP  HZ IP       1612  4.06                              50    1.3010  186 149 
 COP  HZ IP       1612  4.06                              66            186 149 
 COP  HE IS       1612 22.32                              50   -1.5410  186 149 
 COP  HE IS       1612 22.32                              66            186 149 
 COP  HZ ISg      1612 26.92                              90    0.5610  186 149 
 COP  HZ ISg      1612 26.92                              91            186 149 
 SNARTSN ES       1612 39.07                              50   -0.6210  259 303 
 SNARTSZ  AML     1612 48.61        23.8 0.49                           259 303 
 KONO BZ EP       1612 15.95  227                         50    0.0310  291 345 
 KONO BN ES       1612 49.05                              50    2.3010  291 345 
 BSD  HZ IP       1612 20.17                              50   -1.0910  335 130 
 BSD  HZ IP       1612 20.17                              49            335 130 
 BSD  HZ I        1612 26.93                                            335 130 
 BSD  HZ I        1612 26.93                                            335 130 
 BSD  HN IS       1612 53.74                              50   -2.3110  335 130 
 BSD  HN IS       1612 53.74                              49            335 130 
 BSD  HZ ISg      1613  7.65                              90   -0.5010  335 130 
 BSD  HZ ISg      1613  7.65                              90            335 130 
 BLS5 SZ EP   4   1612 25.48  110                         50    0.2810  366 316 
 BLS5 SN ESg  4   1613 16.07                              90   -0.8710  366 316 
 BLS5 SZ  AML 4   1613 20.77        16.8 0.47                           366 316 
 HFS  SZ  Pn      1612 27.54                  213.5  9.1  50  7 1.6310  372  25 
 HFS  SZ  Pg      1612 32.52                  201.2  8.2  90 -5-1.7010  372  25 
 HFS  SZ  Sn      1613 05.83                  209.1  5.9  50  2 1.7010  372  25 
 HFS  SZ  Lg      1613 15.04                  211.4  3.9  91  4-2.4910  372  25 
 ODD1 SZ ESg  4   1613 25.48                              90   -0.5610  398 323 
 ODD1 SZ  AML 4   1613 27.13        19.1 0.32                           398 323 
 KMY  SZ ESg  4   1613 26.87                              90   -1.4510  406 307 
 NB2  SZ  Pn  4   1612 33.82                  220.8  6.1  50 38-0.1510  436   2 
 NB2  SZ  Sn  4   1613 20.57                              50    2.4110  436   2 
 NB2  SZ  Lg  4   1613 35.20                  176.6  3.8  53 -5-0.2610  436   2 
 EGD  SZ ESg  4   1613 48.63                              90   -0.6110  481 319 
 ASK  SZ ESg  4   1613 53.50                              90   -0.7710  499 321 
 FIA0 SZ  Pn  4   1613 44.00                  233.6  9.0  50-13 1.8310  986  55 
 FIA0 SZ  Lg  4   1616 08.42                  253.2  5.2  91  6 0.3410  986  55 
                                                                                
 2005  4 8 1611 56.0SLP 57.126  10.917  23.F TES 13 0.7 2.2LTES 3.0CTES        1
 GAP= 87        4.58       6.0    12.5  0.0  0.2561E+02  0.2437E+02  0.5430E+02E
 ACTION:UPD 11-03-11 11:27 OP:ke   STATUS:               ID:20050408161132 L   I
 2005  4 8 1611 35.2 L  57.166  10.862  0.0  BER 10 1.3 3.0CBER 2.2LBER 2.2LNAO1
 2005 0408 1611 34.8 L  57.253  10.954       NAO  3 1.4                 2.2LNAO1
                 2.6     0.2     0.3   -1.0                                    5
 2005-04-08-1606-00S.MUD___003                                                 6
 2005-04-08-1607-07S.BSD___003                                                 6
 2005-04-08-1611-00S.COP___003                                                 6
 2005-04-08-1612-32S.KMY___003                                                 6
 2005-04-08-1612-30S.ODD___003                                                 6
 2005-04-08-1613-08S.WNN___003                                                 6
 2005-04-08-1611-59S.BLS___003                                                 6
 2005-04-08-1610-41S.KONO__003                                                 6
 2005-04-08-1612-04S.SNART_003                                                 6
     542  DENMARK                                                              3
 STAT SP IPHASW D HRMM SECON CODA AMPLIT PERI AZIMU VELO AIN AR TRES W  DIS CAZ7
 MUD  HZ IP       1611 56.02                              90    0.7810  130 236 
 MUD  HN IS       1612 12.55                              90    1.7810  130 236 
 COP  HZ IP       1612  4.06                              50    1.3010  186 149 
 COP  HZ IP       1612  4.06                              66            186 149 
 COP  HE IS       1612 22.32                              50   -1.5410  186 149 
 COP  HE IS       1612 22.32                              66            186 149 
 COP  HZ ISg      1612 26.92                              90    0.5610  186 149 
 COP  HZ ISg      1612 26.92                              91            186 149 
 SNARTSN ES       1612 39.07                              50   -0.6210  259 303 
 SNARTSZ  AML     1612 48.61        23.8 0.49                           259 303 
 KONO BZ EP       1612 15.95  227                         50    0.0310  291 345 
 KONO BN ES       1612 49.05                              50    2.3010  291 345 
 BSD  HZ IP       1612 20.17                              50   -1.0910  335 130 
 BSD  HZ IP       1612 20.17                              49            335 130 
 BSD  HZ I        1612 26.93                                            335 130 
 BSD  HZ I        1612 26.93                                            335 130 
 BSD  HN IS       1612 53.74                              50   -2.3110  335 130 
 BSD  HN IS       1612 53.74                              49            335 130 
 BSD  HZ ISg      1613  7.65                              90   -0.5010  335 130 
 BSD  HZ ISg      1613  7.65                              90            335 130 
 BLS5 SZ EP   4   1612 25.48  110                         50    0.2810  366 316 
 BLS5 SN ESg  4   1613 16.07                              90   -0.8710  366 316 
 BLS5 SZ  AML 4   1613 20.77        16.8 0.47                           366 316 
 HFS  SZ  Pn      1612 27.54                  213.5  9.1  50  7 1.6310  372  25 
 HFS  SZ  Pg      1612 32.52                  201.2  8.2  90 -5-1.7010  372  25 
 HFS  SZ  Sn      1613 05.83                  209.1  5.9  50  2 1.7010  372  25 
 HFS  SZ  Lg      1613 15.04                  211.4  3.9  91  4-2.4910  372  25 
 ODD1 SZ ESg  4   1613 25.48                              90   -0.5610  398 323 
 ODD1 SZ  AML 4   1613 27.13        19.1 0.32                           398 323 
 KMY  SZ ESg  4   1613 26.87                              90   -1.4510  406 307 
 NB2  SZ  Pn  4   1612 33.82                  220.8  6.1  50 38-0.1510  436   2 
 NB2  SZ  Sn  4   1613 20.57                              50    2.4110  436   2 
 NB2  SZ  Lg  4   1613 35.20                  176.6  3.8  53 -5-0.2610  436   2 
 EGD  SZ ESg  4   1613 48.63                              90   -0.6110  481 319 
 ASK  SZ ESg  4   1613 53.50                              90   -0.7710  499 321 
 FIA0 SZ  Pn  4   1613 44.00                  233.6  9.0  50-13 1.8310  986  55 
 FIA0 SZ  Lg  4   1616 08.42                  253.2  5.2  91  6 0.3410  986  55 
                                                                                
 2005  4 8 1611 56.0SLP 57.126  10.917  24.F TES 13 0.7 2.2LTES 3.0CTES        1
 GAP= 87        4.58       6.0    12.5  0.0  0.2561E+02  0.2437E+02  0.5430E+02E
 ACTION:UPD 11-03-11 11:27 OP:ke   STATUS:               ID:20050408161132 L   I
 2005  4 8 1611 35.2 L  57.166  10.862  0.0  BER 10 1.3 3.0CBER 2.2LBER 2.2LNAO1
