 2005  4 8 1611 35.8 L  57.070  10.947 30.6  TES  6 0.6 2.2LTES 3.1CTES        1
 GAP=106        2.85       6.4    14.2 28.0  0.2283E+02  0.3446E+02 -0.7633E+01E
 ACTION:UP  11-12-04 20:07 OP:ke   STATUS:               ID:20050408161132 L   I
 2005  4 8 1611 35.2 L  57.166  10.862  0.0  BER 10 1.3 3.0CBER 2.2LBER 2.2LNAO1
 2005 0408 1611 34.8 L  57.253  10.954       NAO  3 1.4                 2.2LNAO1
                 2.6     0.2     0.3   -1.0                                    5
 2005-04-08-1606-00S.MUD___003                                                 6
 2005-04-08-1607-07S.BSD___003                                                 6
 2005-04-08-1611-00S.COP___003                                                 6
 2005-04-08-1612-32S.KMY___003                                                 6
 2005-04-08-1612-30S.ODD___003                                                 6
 2005-04-08-1613-08S.WNN___003                                                 6
 2005-04-08-1611-59S.BLS___003                                                 6
 2005-04-08-1610-41S.KONO__003                                                 6
 2005-04-08-1612-04S.SNART_003                                                 6
     542  DENMARK                                                              3
 STAT SP IPHASW D HRMM SECON CODA AMPLIT PERI AZIMU VELO AIN AR TRES W  DIS CAZ7
 MUD  HZ  P       1611 56.02                              56   -0.2810  128 238 
 MUD  HN  S       1612 12.55                              56    1.2810  128 238 
 COP  HZ  P       1612  4.06                              56    1.4010  179 149 
 COP  HZ IP   4   1612  4.06                              56    1.40 0  179 149 
 COP  HE  S       1612 22.32                              56    0.0410  179 149 
 COP  HE IS   4   1612 22.32                              56    0.04 0  179 149 
 COP  HZ ISg  4   1612 26.92                              96    2.43 0  179 149 
 COP  HZ ISg  4   1612 26.92                              96    2.43 0  179 149 
 SNARTSN ES       1612 39.07                              56   -1.4210  264 304 
 SNARTSZ  AML 4   1612 48.61        23.8 0.49                           264 304 
 KONO BZ  P       1612 15.95  227                         56   -1.5010  298 345 
 KONO BN  S       1612 49.05                              56    1.2010  298 345 
 BSD  HZ IP       1612 20.17                              56   -1.1510  329 130 
 BSD  HZ IP   4   1612 20.17                              56   -1.15 0  329 130 
 BSD  HZ I    4   1612 26.93                                            329 130 
 BSD  HZ I    4   1612 26.93                                            329 130 
 BSD  HN IS       1612 53.74                              56   -0.8210  329 130 
 BSD  HN IS   4   1612 53.74                              56   -0.82 0  329 130 
 BSD  HZ ISg  4   1613  7.65                              93    4.24 0  329 130 
 BSD  HZ ISg  4   1613  7.65                              93    4.24 0  329 130 
 BLS5 SZ EP   4   1612 25.48  110                         56   -1.19 0  372 317 
 BLS5 SN ESg  4   1613 16.07                              93    1.55 0  372 317 
 BLS5 SZ  AML 4   1613 20.77        16.8 0.47                           372 317 
 HFS  SZ  P       1612 27.54                  213.5  9.1  56  7 0.2710  377  24 
 HFS  SZ  Pg  4   1612 32.52                  201.2  8.2  93 -4-1.08 0  377  24 
 HFS  SZ  S       1613 05.83                  209.1  5.9  56  3 0.9910  377  24 
 HFS  SZ  Lg  4   1613 15.04                  211.4  3.9   0  5-5.40 0  377  24 
 ODD1 SZ ESg  4   1613 25.48                              92    2.42 0  404 323 
 ODD1 SZ  AML 4   1613 27.13        19.1 0.32                           404 323 
 KMY  SZ ESg  4   1613 26.87                              92    1.99 0  412 308 
 NB2  SZ  Pn  4   1612 33.82                  220.8  6.1  56 39-1.69 0  443   2 
 NB2  SZ  Sn  4   1613 20.57                              56    1.47 0  443   2 
 NB2  SZ  Lg  4   1613 35.20                  176.6  3.8   0 -5-3.51 0  443   2 
 EGD  SZ ESg  4   1613 48.63                              92    4.17 0  487 319 
 ASK  SZ ESg  4   1613 53.50                              92    4.35 0  505 321 
 FIA0 SZ  Pn  4   1613 44.00                  233.6  9.0  56-13 0.63 0  988  54 
 FIA0 SZ  Lg  4   1616 08.42                  253.2  5.2   0  6-1.80 0  988  54 
                                                                                
