 2003  9 6 0042 49.4 L  57.484  11.674  6.4  DNK  4 1.4 3.3CDNK                1
 GAP=146        3.79       7.7    20.9 19.2 -0.2776E+02  0.4297E+02 -0.2471E+02E
 ACTION:SPL 11-09-19 12:44 OP:ke   STATUS:               ID:20030906004249 L   I
 2003  9 6 0042 51.1 L  57.477  11.646  0.0  BER  3 1.4                        1
 2003-09-06-0039-59S.DNK___009                                                 6
 ber: S file from KMS, Denmark. January 2004, mbs                              3
 STAT SP IPHASW D HRMM SECON CODA AMPLIT PERI AZIMU VELO AIN AR TRES W  DIS CAZ7
 MUD     IP         43 18.0                               66   -1.61 9  190 234 
 MUD     IS         43 43.00                              66    1.33 9  190 234 
 COP     IP   4     43 35.00                              49   13.20 0  206 167 
 COP     IS   4     44 15.00                              49   29.54 0  206 167 
 HFS      P        043 35.6                               49   -0.1310  318  21 
 HFS      Sn       044 07.6                               49   -1.97 9  318  21 
 HFS      S         44 11.4                               49    1.83 9  318  21 
 HFS      Lg        44 20.5                               66    1.42 9  318  21 
 BSD  HZ IP        043 37.21  203                         49   -0.2610  332 141 
 BSD  HZ I         043 42.90                                            332 141 
 BSD  HN ES        044 13.63                              49    1.0710  332 141 
 BSD  HZ ISG       044 23.91                              91    0.0110  332 141 
 FIN      Pn        44 49.3                               49   -2.17 9  926  56 
                                                                                
