 2004  416 0059 59.9 L  58.226  11.729  0.0  TES  3 0.1                        1
 GAP=168        0.43       1.5     5.3  4.4 -0.5147E+01 -0.1614E+01  0.7600E+00E
 ACTION:UP  11-11-29 13:57 OP:ke   STATUS:               ID:20040416005959 L   I
 STAT SP IPHASW D HRMM SECON CODA AMPLIT PERI AZIMU VELO AIN AR TRES W  DIS CAZ7
 HFS      P       0100 37.14                              49   -0.2110  240  27 
 HFS      S       0101 04.82                              49    0.1410  240  27 
 MUD      P       0100 38.50                              49   -0.0310  250 219 
 MUD      S       0101 06.75                              49    0.0310  250 219 
 COP      P       0100 43.16                              49    0.1410  286 171 
 COP      S       0101 14.40                              49   -0.0810  286 171 
                                                                                
