 1996  6 3 1955 35.5 D  47.760 153.227  0.0  TES 12 1.1         5.6WHRV 5.6BPDE1
 1996  6 3 1955 35.5 D  47.760 153.227  0.0  TES 12 1.1         5.6WHRV 5.6BPDE1
 GAP=348        2.88     999.9   999.9999.9 -0.1404E+08 -0.3810E+08  0.1205E+09E
 1996 0603 1955 31.8 D  46.787153.722  33.0  PDE        5.6BPDE                1
 ACTION:SPL 08-10-02 10:19 OP:jh   STATUS:               ID:19960603195540     I
 1996-06-03-2002-18S.TEST__012                                                 6
 1996-06-03-1917-52S.TEST__002                                                 6
 STAT SP IPHASW D HRMM SECON CODA AMPLIT PERI AZIMU VELO AIN AR TRES W  DIS CAZ7
 TRO  SZ EP       20 5 32.5                               21    1.7510 6471 343 
 JNW  SZ EP       20 5 49.5                               21    1.1910 6755 353 
 JMI  LZ I        20 8 27.35                                           6768 353 
 JMI  LZ I        2014 41.56                                           6768 353 
 JMI  LZ I        2021 25.49                                           6768 353 
 HYA  SZ EP       20 6 36.91                              19   -0.1410 7580 343 
 SUE  SZ IP     C 20 6 39.07                              19   -0.2810 7621 344 
 ASK  SZ EP   9   20 6 37.24                              19   -4.94 0 7671 344 
 BER  SZ EP   9   20 6 37.43                              19   -5.16 0 7678 344 
 EGD  SZ EP   9   20 6 38.42                              19   -4.95 0 7692 344 
 ODD1 SZ EP       20 6 45.57                              19    1.7310 7699 343 
 BLS5 SZ EP       20 6 46.33                              19   -0.5010 7753 343 
 KONO BZ IP     C 20 6 40.72                              19   -0.7010 7657 341 
 KONO BZ  IVmB_BB 20 6 41.86      2652.5 1.50                                   
 LOF  SZ IP     C 20 5 46.68                              21   -0.1110 6729 344 
 FOO  SZ EP       20 6 35.99                              19    0.1210 7559 344 
 KBS  BZ EP       20 4 40.63                              23   -1.3210 5724 351 
 KBS  BZ  IAML    20 2 40.18         8.4 2.30                                   
 KBS  BZ  IAmb    20 5 32.77       585.7 3.60                                   
 KBS  BZ  IVmB_BB 20 5 51.22       387.2 3.80                                   
 KBS  BZ  IAMs_20 20 6 26.01       217.1 7.70                                   
 KBS  BZ  IVMs_BB 20 3 31.62       270.0 3.60                                   
 MOL  SZ IP       20 6 25.63                              19           7408 343 
                                                                                
