 2003 12 4 1248  7.4SLE 56.230  11.040  0.0F TES  6 1.0 2.6LTES 3.2CTES        1
 GAP=159        4.85      14.2    31.3  0.0  0.1355E+03  0.1640E+05 -0.1226E+04E
 ACTION:UPD 11-03-11 11:27 OP:ke   STATUS:               ID:20031204124749 L   I
 2003 12 4 1243 10.6 L                                                         1
 2003-12-04-1243-10S.DNK___021                                                 6
 2003 12 4 1247 48.8 L  56.154  10.880 15.0F BER  3 1.3 2.6LBER 2.9CBER 2.7LNAO1
 Stations too far for reliable depth estimate. Fixed at 15 km. mbs             3
 2003-12-04-1246-30S.KONO__003                                                 6
 2003 1204 1247 45.2 L  56.200  10.336 10.6  NAO  3 1.5                 2.7LNAO1
                 6.3     0.3     0.1   36.7                                    5
     542  DENMARK                                                              3
 pv: sok: pos 56 10,0n 11 23,5e 041230utc to miner ialt 1190kg                 3
 STAT SP IPHASW D HRMM SECON CODA AMPLIT PERI AZIMU VELO AIN AR TRES W  DIS CAZ7
 COP  HZ IP       1248  7.36                              90    0.6810  106 124 
 MUD  HZ IP       1248 10.95                              90    2.3310  118 283 
 BSD  HZ IP       1248 23.92                              50   -5.0910  274 115 
 BSD  HN IS       1249  2.12                              50    3.9310  274 115 
 KONO BZ EP       1248 42.20  166                         50   -1.3210  390 348 
 KONO BZ  AML     1249 45.61        34.6 0.39                           390 348 
 HFS  SZ  Pn      1248 50.72                  206.7  8.8  50  6-1.7110  462  19 
 HFS  SZ  Sn      1249 40.37                  199.8  4.4  50  0 1.4310  462  19 
 HFS  SZ  Lg      1249 58.78                  205.0  3.5  50  4 0.8910  462  19 
 HFC2 BZ IP   4   1248 50.52                              49   -1.81 0  462  19 
 FIA0 SZ  P       1250 00.17                  240.7  9.3  47 -1-1.1510 1041  50 
                                                                                
 2003 12 4 1328 44.6SLE 56.207  11.416  0.0F TES  6 0.7 2.6LTES 3.2CTES        1
 GAP=165        3.37       8.5    12.8  0.0  0.2289E+02  0.1640E+05 -0.1226E+04E
 ACTION:UPD 11-03-11 11:27 OP:ke   STATUS:               ID:20031204132821 L   I
 2003-12-04-1325-48S.DNK___009                                                 6
 2003-12-04-1325-00S.DNK___012                                                 6
 2003-12-04-1327-16S.KONO__003                                                 6
 2003 12 4 1328 25.8 L  56.376  11.171 15.0F BER  3 1.3 2.5LBER 2.9CBER 2.7LNAO1
 Stations too far for reliable depth estimate. Fixed at 15 km. mbs             3
 2003 1204 1328 21.3 L  56.352  11.003       NAO  3 1.7                 2.7LNAO1
                 3.0     0.2     0.1   -1.0                                    5
     542  DENMARK                                                              3
 mag: HFS er fra norsar auto, mens HFA1 er egne afl.                           3
 pv: sok: pos 56 10,0n 11 23,5e 041330 to miner ialt 1190 kg                   3
 STAT SP IPHASW D HRMM SECON CODA AMPLIT PERI AZIMU VELO AIN AR TRES W  DIS CAZ7
 MUD  HZ IP       1328 44.63                              70   -0.8410  141 282 
 MUD  HN IS       1329  4.46                              70    2.1510  141 282 
 BSD  HZ IP       1328 58.08                              50   -1.3210  252 117 
 BSD  HE IS       1329 27.56                              50    1.0110  252 117 
 BSD  HN ISG      1329 32.30                              90   -1.0010  252 117 
 BSD  HZ ESG      1329 33.43                                            252 117 
 KONO BZ EP       1329 16.16  169                         50   -1.4810  398 345 
 KONO BZ  AML     1330 19.73        33.5 0.40                           398 345 
 HFS  SZ  Pn      1329 24.22                  201.9  8.6  50  4-0.7810  457  16 
 HFS  SZ  Sn      1330 11.39                  192.0  4.2  50 -5 0.2910  457  16 
 HFS  SZ  Lg      1330 27.44                  194.5  3.6  49 -3-2.3410  457  16 
 HFA1 SZ IP       1329 24.79                              49   -0.2510  458  16 
 FIA0 SZ  P       1330 33.95                  245.2  8.9  47  3 1.3910 1025  49 
 FIA0 SZ  Lg      1333 10.57                  250.6  3.9  91  9 3.1610 1025  49 
                                                                                
