 2003  9 6 0043 18.0SL  57.368  11.319  0.0  TES  418.0 3.3CTES                1
 GAP=150       37.92      75.3   228.5195.9 -0.2847E+04  0.1640E+05 -0.1226E+04E
 ACTION:UPD 11-03-11 11:57 OP:ke   STATUS:               ID:20030906004249 L   I
 2003  9 6 0042 51.1 L  57.477  11.646  0.0  BER  3 1.4                        1
 2003-09-06-0039-59S.DNK___009                                                 6
 ber: S file from KMS, Denmark. January 2004, mbs                              3
 STAT SP IPHASW D HRMM SECON CODA AMPLIT PERI AZIMU VELO AIN AR TRES W  DIS CAZ7
 MUD     IP         43 18.0                               50    5.1410  166 233 
 MUD     IS         43 43.00                              50   10.8910  166 233 
 COP     IP   4     43 35.00                              50   17.92 0  199 159 
 COP     IS   4     44 15.00                              50   35.56 0  199 159 
 BSD  HZ IP        043 37.21  203                         50    3.2110  336 137 
 BSD  HZ I         043 42.90                                            336 137 
 BSD  HN ES        044 13.63                              50    4.7510  336 137 
 BSD  HZ ISG       044 23.91                              90    2.8710  336 137 
 HFS      P        043 35.6                               50    1.3610  337  23 
 HFS      Sn       044 07.6                               50   -1.7010  337  23 
 HFS      S         44 11.4                               50    2.1010  337  23 
 HFS      Lg        44 20.5                                0   -0.0810  337  23 
 FIN      Pn        44 49.3                               50   -66.8 7 1479 190 
                                                                                
