 2004  416 0811 57.7SLE 56.139   9.458  0.0F TES 27 6.5 3.4LTES 2.6CTES        1
 GAP=141       32.31      64.4   108.0  0.0  0.1726E+04  0.3874E+03  0.9539E+02E
 ACTION:UPD 11-03-11 11:27 OP:ke   STATUS:               ID:20040416081116 L   I
 2004  416 0811 19.5 L  57.732  10.618  0.0  BER  9 1.1 1.7LBER 2.1CBER 2.4LNAO1
 2004 0416 0811 20.0 L  57.854  10.727  4.8  NAO  3 0.4                 2.4LNAO1
                 9.9     0.6     0.4   50.3                                    5
 2004-04-16-0811-28S.KMY___003                                                 6
 2004-04-16-0811-26S.ODD___003                                                 6
 2004-04-16-0811-36S.WNN___003                                                 6
 2004-04-16-0811-26S.BLS___003                                                 6
 2004-04-16-0810-00S.MUD___003                                                 6
 2004-04-16-0811-00S.BSD___003                                                 6
 sok: 16 APR 08:10 5738.0N 01042.0E 19M sand et stk mine type 25               3
     542  DENMARK                                                              3
 STAT SP IPHASW D HRMM SECON CODA AMPLIT PERI AZIMU VELO AIN AR TRES W  DIS CAZ7
 DELU BZ  P       0811 53.40                  310.1       49                    
 VXJU BZ  P       0811 57.66                  292.2       50 3411.1410  348  73 
 BSD  HZ IP        812 10.97                              50   22.7410  362 106 
 BSD  HE ILG       813  6.75                               0   28.3710  362 106 
 EKSU BZ  P       0811 59.46                  254.7       50  6 7.6910  390  63 
 BLEU BZ  P       0812  6.53                              50   14.2610  395  85 
 BLS5 SZ EP        812  3.08  101                         50    9.2310  407 335 
 BLS5 SE ES        812 36.74                              50    1.4210  407 335 
 BLS5 SZ  AML      812 48.92         7.5 0.41                           407 335 
 KMY  SZ EP        812  8.45   94                         50   12.4810  424 325 
 KMY  SZ ES        812 45.38                              50    6.3610  424 325 
 OSKU BZ  P       0812  5.58                  321.8       50 65 9.7010  424  71 
 LNKU BZ  P       0812  1.21                  246.1       49  6 4.1910  433  55 
 ASKU BT  S       0812 34.56                              49   -8.7410  445  44 
 ODD1 SZ EP        812  6.03                              49    6.6110  452 339 
 ODD1 SN ES        812 41.92                              49   -3.1010  452 339 
 NRAU BZ  P       0812  9.37                  239.4       49 16 3.5410  506  39 
 VIKU BZ  P       0812 10.75                  245.8       49  4 4.4910  509  56 
 HFS      Pn  4   0812 04.6                               50   -2.02 0  510  28 
 HFS  SZ  Pn      0812 04.78                  222.0  8.4  50 11-1.8410  510  28 
 HFS  SZ  Pg      0812 09.23                  210.0  6.9  90  0-10.810  510  28 
 HFS      p   4   0812 10.0                               49    3.62 0  510  28 
 HFS      p   4   0812 13.6                               49    7.22 0  510  28 
 HFS      p   4   0812 16.3                               49    9.92 0  510  28 
 HFS      s   4   0812 20.9                               49   -36.2 0  510  28 
 HFS      p   4   0812 28.6                               49   22.22 0  510  28 
 HFS      Sn      0812 33.3                               50   -24.210  510  28 
 HFS      s   4   0812 40.8                               49   -16.3 0  510  28 
 HFS      Lg      0812 42.9        1.0   8.12             53   -36.610  510  28 
 HFS  SZ  Lg      0812 46.85                  216.5  4.0   0  5         510  28 
 HFS      s   4   0812 47.8                               49   -9.32 0  510  28 
 HFS      s   4   0812 48.4                               49   -8.72 0  510  28 
 HFS      s   4   0812 52.9                               49   -4.22 0  510  28 
 HFS      s   4   0812 55.8                               49   -1.32 0  510  28 
 EGD  SZ EP        812 16.64                              49    8.7110  523 333 
 EGD  SZ ES        813  0.28                              49    0.4510  523 333 
 BER  SZ EP        812 17.50                              49    8.6010  531 335 
 ESKU BZ  P       0812 11.70                  258.8       49 26 1.9610  538  47 
 ASK  SZ EP        812 19.07                              49    8.5510  544 334 
 NYNU BZ  P       0812 21.27                  267.2       49 26 3.7410  602  54 
 BACU BZ  P       0812 20.13                  209.3       49-21 1.3510  612  44 
 OSTU BZ  P       0812 22.99                  215.8       49-11 0.7710  641  42 
 NRTU BZ  P       0812 28.57                  250.5       49 12 2.7310  671  50 
 GRAU BZ  P       0812 31.24                  231.9       47  0 0.8610  708  45 
 FIA0 SZ  Pn      0813 23.15                  251.0  9.5  50  5 0.3310 1124  51 
 FIA0 SZ  Sn      0814 58.60                  248.7  5.3  50  3-11.510 1124  51 
 FIA0 SZ  Lg      0815 49.32                  249.1  4.3  51  3-20.610 1124  51 
 FIN      Pn      0813 23.2                               50   -25.3 8 1329 184 
 FIN      Lg      0815 49.3      275.4   2.09             51   -77.8 8 1329 184 
 ARA0 SZ  P       0814 26.20                  213.0  8.3  47 -2 0.19 5 1691  22 
 ARC      Pn      0814 27.7                               50   -99.9 0 8402 325 
 ARC      p   4   0814 35.0                               47   -99.9 0 8402 325 
                                                                                
