 2005  2 3 1550  3.2SLE 56.254  11.468  0.0F TES 11 1.0 3.1CTES                1
 GAP=144        4.14       7.8    15.7  0.0  0.4643E+02  0.2437E+02  0.5430E+02E
 ACTION:UPD 11-03-11 11:27 OP:ke   STATUS:               ID:20050203154947 L   I
 2005  2 3 1549 52.0 L  56.289  11.363 15.0F BER  8 1.3 1.8LBER 2.7CBER 3.0LNAO1
 2005 0203 1549 48.4 L  56.267  11.152       NAO  5 0.8                 3.0LNAO1
                 3.1     0.2     0.5   -1.0                                    5
 2005-02-03-1540-00S.MUD___003                                                 6
 2005-02-03-1540-55S.BSD___003                                                 6
 2005-02-03-1541-00S.COP___003                                                 6
 2005-02-03-1550-17S.ODD___003                                                 6
 2005-02-03-1550-14S.BLS___003                                                 6
 2005-02-03-1550-06S.KONO__003                                                 6
 2005-02-03-1549-59S.SNART_003                                                 6
 ber: depth fixed to 15 km. continental crust                                  3
 pv: se event 1feb2005                                                         3
 pv: 031547Z FEB/KATTEGAT SYD/5610,040N-01130.170E/20M/SAND/800KG TNT          3
     542  DENMARK                                                              3
 STAT SP IPHASW D HRMM SECON CODA AMPLIT PERI AZIMU VELO AIN AR TRES W  DIS CAZ7
 COP  HZ IP       1550  3.23                              90   -1.0710 87.4 136 
 COP  HE ES       1550 15.48                              90    0.7510 87.4 136 
 MUD  HZ IP     C 1550 14.00                              70    0.7110  144 280 
 MUD  HN IS       1550 34.34                              70    3.9710  144 280 
 BSD  HZ IP       1550 24.98                              50   -1.8810  251 119 
 BSD  HN IS       1550 55.99                              50    2.0110  251 119 
 SNARTSZ EP       1550 37.04                              50   -1.6010  346 314 
 KONO BZ EP   9   1551 45.71  201                         50   61.10 0  394 344 
 HFS  SZ  Pn      1550 52.18                  203.1  8.1  50  5 0.4210  452  16 
 HFS  SZ  Pg      1551 03.19                  194.4  7.4  90 -2 0.1610  452  16 
 HFS  SZ  Sn      1551 40.98                  205.8  3.8  50  8 3.6710  452  16 
 HFS  SZ  Lg      1551 56.84                  204.4  3.3  91  7 1.2210  452  16 
 BLS5 SZ EP       1550 53.18                              49    0.2410  462 322 
 BLS5 SN ES       1551 38.82                              49   -0.5410  462 322 
 ODD1 SZ EP       1550 56.63  107                         49   -0.6610  497 327 
 ODD1 SZ ES       1551 42.80                              49   -4.1310  497 327 
 NC6  SZ  Pn      1550 57.45                              50   -0.4110  501 360 
 NC6  SZ  Lg      1552 10.65                              55    1.4010  501 360 
 NB2  SZ  Pn      1551 01.20                              50   -0.7710  533 359 
 NB2  SZ  Lg      1552 17.77                              55   -0.5910  533 359 
 FIA0 SZ  Pn      1552 00.80                  244.1  9.3  50  2-1.4510 1019  49 
 ARA0 SZ  Pn      1553 13.15                  207.2  8.0  50 -4-5.60 5 1635  20 
                                                                                
