 2003 12 4 1328 20.8 LE 56.259  11.574  0.0F TES  4 0.4 2.6LTES 3.2CTES        1
 GAP=159        2.06       7.9    10.2  0.0  0.2174E+02  0.0000E+00  0.0000E+00E
 ACTION:UP  11-12-19 13:09 OP:ke   STATUS:               ID:20031204132821 L   I
 2003-12-04-1325-48S.DNK___009                                                 6
 2003-12-04-1325-00S.DNK___012                                                 6
 2003-12-04-1327-16S.KONO__003                                                 6
 2003 12 4 1328 25.8 L  56.376  11.171 15.0F BER  3 1.3 2.5LBER 2.9CBER 2.7LNAO1
 Stations too far for reliable depth estimate. Fixed at 15 km. mbs             3
 2003 1204 1328 21.3 L  56.352  11.003       NAO  3 1.7                 2.7LNAO1
                 3.0     0.2     0.1   -1.0                                    5
     542  DENMARK                                                              3
 mag: HFS er fra norsar auto, mens HFA1 er egne afl.                           3
 pv: sok: pos 56 10,0n 11 23,5e 041330 to miner ialt 1190 kg                   3
 STAT SP IPHASW D HRMM SECON CODA AMPLIT PERI AZIMU VELO AIN AR TRES W  DIS CAZ7
 MUD  HZ IP       1328 44.63                              66   -0.7510  150 279 
 MUD  HN IS       1329  4.46                              66    1.1210  150 279 
 BSD  HZ IP       1328 58.08                              49   -0.7910  246 120 
 BSD  HE IS       1329 27.56                              49    0.9010  246 120 
 BSD  HN ISG  4   1329 32.30                              90    1.48 0  246 120 
 BSD  HZ ESG  4   1329 33.43                              90    2.61 0  246 120 
 KONO BZ EP       1329 16.16  169                         49   -1.3410  395 344 
 KONO BZ  AML 4   1330 19.73        33.5 0.40                           395 344 
 HFS  SZ  Pn      1329 24.22                  201.9  8.6  49  5 0.0010  449  15 
 HFS  SZ  Sn      1330 11.39                  192.0  4.2  49 -4 0.8610  449  15 
 HFS  SZ  Lg  4   1330 27.44                  194.5  3.6   0 -2 1.89 0  449  15 
 HFA1 SZ IP   4   1329 24.79                              49    0.44 0  450  15 
 FIA0 SZ  P   4   1330 33.95                  245.2  8.9  46  3 2.47 0 1014  49 
 FIA0 SZ  Lg  4   1333 10.57                  250.6  3.9   0  9 8.21 0 1014  49 
                                                                                
