 2003 12 4 1247 48.8 LE 56.305  11.218  0.0F TES  4 1.3 2.6LTES 3.2CTES        1
 GAP=147        5.49      20.8    39.1  0.0  0.3148E+03  0.0000E+00  0.0000E+00E
 ACTION:UP  11-12-04 17:50 OP:ke   STATUS:               ID:20031204124749 L   I
 2003 12 4 1243 10.6 L                                                         1
 2003-12-04-1243-10S.DNK___021                                                 6
 2003 12 4 1247 48.8 L  56.154  10.880 15.0F BER  3 1.3 2.6LBER 2.9CBER 2.7LNAO1
 Stations too far for reliable depth estimate. Fixed at 15 km. mbs             3
 2003-12-04-1246-30S.KONO__003                                                 6
 2003 1204 1247 45.2 L  56.200  10.336 10.6  NAO  3 1.5                 2.7LNAO1
                 6.3     0.3     0.1   36.7                                    5
     542  DENMARK                                                              3
 pv: sok: pos 56 10,0n 11 23,5e 041230utc to miner ialt 1190kg                 3
 STAT SP IPHASW D HRMM SECON CODA AMPLIT PERI AZIMU VELO AIN AR TRES W  DIS CAZ7
 COP  HZ IP       1248  7.36                              90    1.7210  102 132 
 MUD  HZ IP       1248 10.95                              90    1.2110  127 278 
 BSD  HZ IP       1248 23.92                              49   -5.6310  268 118 
 BSD  HN IS       1249  2.12                              49    2.7910  268 118 
 KONO BZ EP       1248 42.20  166                         49   -1.95 0  385 346 
 KONO BZ  AML 4   1249 45.61        34.6 0.39                           385 346 
 HFS  SZ  Pn      1248 50.72                  206.7  8.8  49  7-1.6510  451  18 
 HFS  SZ  Sn      1249 40.37                  199.8  4.4  49  0 1.5610  451  18 
 HFS  SZ  Lg  4   1249 58.78                  205.0  3.5   0  5 4.86 0  451  18 
 HFC2 BZ IP   4   1248 50.52                              49   -1.85 0  451  18 
 FIA0 SZ  P   4   1250 00.17                  240.7  9.3  46 -1-0.88 0 1027  50 
                                                                                
